,PALIKA,District,Province,Full_Name,Longitude,Latitude
0,Aathrai Tribeni Gaunpalika,TAPLEJUNG,1,"Aathrai Tribeni Gaunpalika, TAPLEJUNG",87.61937731902103,27.30957503223316
1,Maiwakhola Gaunpalika,TAPLEJUNG,1,"Maiwakhola Gaunpalika, TAPLEJUNG",87.51328914938658,27.373650246203024
2,Meringden Gaunpalika,TAPLEJUNG,1,"Meringden Gaunpalika, TAPLEJUNG",87.54501893099925,27.465464117306023
3,Mikwakhola Gaunpalika,TAPLEJUNG,1,"Mikwakhola Gaunpalika, TAPLEJUNG",87.62781585795899,27.583550272715854
4,Phaktanglung Gaunpalika,TAPLEJUNG,1,"Phaktanglung Gaunpalika, TAPLEJUNG",87.89713038574698,27.70300932794443
5,Phungling Nagarpalika,TAPLEJUNG,1,"Phungling Nagarpalika, TAPLEJUNG",87.71205398103649,27.38097009254062
6,Sidingba Gaunpalika,TAPLEJUNG,1,"Sidingba Gaunpalika, TAPLEJUNG",87.94176573146746,27.3522899326663
7,Sirijangha Gaunpalika,TAPLEJUNG,1,"Sirijangha Gaunpalika, TAPLEJUNG",87.94650703494177,27.476015174383885
8,Pathibhara Yangwarak Gaunpalika,TAPLEJUNG,1,"Pathibhara Yangwarak Gaunpalika, TAPLEJUNG",87.75250994222735,27.31531585232796
9,Falelung Gaunpalika,PANCHTHAR,1,"Falelung Gaunpalika, PANCHTHAR",87.92660555725224,27.173262832120802
10,Falgunanda Gaunpalika,PANCHTHAR,1,"Falgunanda Gaunpalika, PANCHTHAR",87.7392183858223,27.049652938070587
11,Hilihang Gaunpalika,PANCHTHAR,1,"Hilihang Gaunpalika, PANCHTHAR",87.76269112938014,27.22140280380654
12,Kummayak Gaunpalika,PANCHTHAR,1,"Kummayak Gaunpalika, PANCHTHAR",87.6302816026566,27.068006549610406
13,Miklajung Gaunpalika,PANCHTHAR,1,"Miklajung Gaunpalika, PANCHTHAR",87.62555172528926,26.92428161949894
14,Phidim Nagarpalika,PANCHTHAR,1,"Phidim Nagarpalika, PANCHTHAR",87.79938107283935,27.11691542395401
15,Tumbewa Gaunpalika,PANCHTHAR,1,"Tumbewa Gaunpalika, PANCHTHAR",87.57900274270585,26.981859399579125
16,Yangwarak Gaunpalika,PANCHTHAR,1,"Yangwarak Gaunpalika, PANCHTHAR",87.95146294251664,27.282295487345475
17,Chulachuli Gaunpalika,ILAM,1,"Chulachuli Gaunpalika, ILAM",87.72254510893316,26.74752853330607
18,Deumai Nagarpalika,ILAM,1,"Deumai Nagarpalika, ILAM",87.82997625511345,26.921258205321486
19,Fakphokthum Gaunpalika,ILAM,1,"Fakphokthum Gaunpalika, ILAM",87.74928144173505,26.965670423776732
20,Illam Nagarpalika,ILAM,1,"Illam Nagarpalika, ILAM",87.90870574329689,26.93135717340908
21,Mai Nagarpalika,ILAM,1,"Mai Nagarpalika, ILAM",87.86804388706153,26.766798245666724
22,Maijogmai Gaunpalika,ILAM,1,"Maijogmai Gaunpalika, ILAM",88.01253938291407,26.962365139955125
23,Mangsebung Gaunpalika,ILAM,1,"Mangsebung Gaunpalika, ILAM",87.72810573025355,26.831955411516027
24,Rong Gaunpalika,ILAM,1,"Rong Gaunpalika, ILAM",88.07073278997649,26.80308777472194
25,Sandakpur Gaunpalika,ILAM,1,"Sandakpur Gaunpalika, ILAM",87.95464518877512,27.0505043564794
26,Suryodaya Nagarpalika,ILAM,1,"Suryodaya Nagarpalika, ILAM",88.06862177574892,26.89069466551554
27,Arjundhara Nagarpalika,JHAPA,1,"Arjundhara Nagarpalika, JHAPA",87.98432673451725,26.704597483322253
28,Barhadashi Gaunpalika,JHAPA,1,"Barhadashi Gaunpalika, JHAPA",87.92856764426506,26.53454699025521
29,Bhadrapur Nagarpalika,JHAPA,1,"Bhadrapur Nagarpalika, JHAPA",88.07430940813278,26.524355147154825
30,Birtamod Nagarpalika,JHAPA,1,"Birtamod Nagarpalika, JHAPA",87.99403535199207,26.60879206518183
31,Buddhashanti Gaunpalika,JHAPA,1,"Buddhashanti Gaunpalika, JHAPA",88.06602360175245,26.732533505143987
32,Damak Nagarpalika,JHAPA,1,"Damak Nagarpalika, JHAPA",87.67667845466549,26.673005511967478
33,Gauradhaha Nagarpalika,JHAPA,1,"Gauradhaha Nagarpalika, JHAPA",87.70501686896792,26.532564842121463
34,Gauriganj Gaunpalika,JHAPA,1,"Gauriganj Gaunpalika, JHAPA",87.74838144165884,26.464542688427425
35,Haldibari Gaunpalika,JHAPA,1,"Haldibari Gaunpalika, JHAPA",88.00154974247967,26.51569460530972
36,Jhapa Gaunpalika,JHAPA,1,"Jhapa Gaunpalika, JHAPA",87.86500353181887,26.51094327146487
37,Kachankawal Gaunpalika,JHAPA,1,"Kachankawal Gaunpalika, JHAPA",87.99957004871293,26.423716846335495
38,Kamal Gaunpalika,JHAPA,1,"Kamal Gaunpalika, JHAPA",87.73517714329431,26.615250653588696
39,Kankai Nagarpalika,JHAPA,1,"Kankai Nagarpalika, JHAPA",87.90559789672096,26.64052538867858
40,Mechinagar Nagarpalika,JHAPA,1,"Mechinagar Nagarpalika, JHAPA",88.115788302471,26.675362922464142
41,Shivasataxi Nagarpalika,JHAPA,1,"Shivasataxi Nagarpalika, JHAPA",87.82075314194701,26.61216067573258
42,Belbari Nagarpalika,MORANG,1,"Belbari Nagarpalika, MORANG",87.4395160381045,26.629696146011252
43,Biratnagar Mahanagarpalika,MORANG,1,"Biratnagar Mahanagarpalika, MORANG",87.27721567617643,26.449432670556728
44,Budhiganga Gaunpalika,MORANG,1,"Budhiganga Gaunpalika, MORANG",87.29822465291872,26.5614107181651
45,Dhanpalthan Gaunpalika,MORANG,1,"Dhanpalthan Gaunpalika, MORANG",87.40267522642523,26.45679550758902
46,Gramthan Gaunpalika,MORANG,1,"Gramthan Gaunpalika, MORANG",87.35548587803596,26.55392728418638
47,Jahada Gaunpalika,MORANG,1,"Jahada Gaunpalika, MORANG",87.3329131526738,26.405799648977013
48,Kanepokhari Gaunpalika,MORANG,1,"Kanepokhari Gaunpalika, MORANG",87.50047345342757,26.596509516285717
49,Katahari Gaunpalika,MORANG,1,"Katahari Gaunpalika, MORANG",87.34337033271774,26.48718144653525
50,Kerabari Gaunpalika,MORANG,1,"Kerabari Gaunpalika, MORANG",87.40422262559117,26.78591720480339
51,Letang Nagarpalika,MORANG,1,"Letang Nagarpalika, MORANG",87.51668509702506,26.755488253675477
52,Miklajung Gaunpalika,MORANG,1,"Miklajung Gaunpalika, MORANG",87.6123808591906,26.780951681090833
53,Patahrishanishchare Nagarpalika,MORANG,1,"Patahrishanishchare Nagarpalika, MORANG",87.56521745683911,26.611889669373898
54,Rangeli Nagarpalika,MORANG,1,"Rangeli Nagarpalika, MORANG",87.47026358126196,26.494624622536865
55,Ratuwamai Nagarpalika,MORANG,1,"Ratuwamai Nagarpalika, MORANG",87.62006462245567,26.47922787255733
56,Sundarharaicha Nagarpalika,MORANG,1,"Sundarharaicha Nagarpalika, MORANG",87.34990784404077,26.657539273472917
57,Sunwarshi Nagarpalika,MORANG,1,"Sunwarshi Nagarpalika, MORANG",87.55469341205684,26.481412882437372
58,Uralabari Nagarpalika,MORANG,1,"Uralabari Nagarpalika, MORANG",87.62177174492975,26.649324502573762
59,Barah Nagarpalika,SUNSARI,1,"Barah Nagarpalika, SUNSARI",87.13359914265108,26.7547712657735
60,Barju Gaunpalika,SUNSARI,1,"Barju Gaunpalika, SUNSARI",87.20604446431378,26.459603829928998
61,Bhokraha Narsingh Gaunpalika,SUNSARI,1,"Bhokraha Narsingh Gaunpalika, SUNSARI",87.0977097374887,26.591838228638963
62,Dewanganj Gaunpalika,SUNSARI,1,"Dewanganj Gaunpalika, SUNSARI",87.1506535859707,26.452518566269408
63,Dharan Upamahanagarpalika,SUNSARI,1,"Dharan Upamahanagarpalika, SUNSARI",87.27450419194693,26.800924392582424
64,Duhabi Nagarpalika,SUNSARI,1,"Duhabi Nagarpalika, SUNSARI",87.24649652424695,26.55456359256231
65,Gadhi Gaunpalika,SUNSARI,1,"Gadhi Gaunpalika, SUNSARI",87.19672354000758,26.56067881718665
66,Harinagar Gaunpalika,SUNSARI,1,"Harinagar Gaunpalika, SUNSARI",87.11346389959566,26.498813546998015
67,Inaruwa Nagarpalika,SUNSARI,1,"Inaruwa Nagarpalika, SUNSARI",87.16242541190576,26.60711588932951
68,Itahari Upamahanagarpalika,SUNSARI,1,"Itahari Upamahanagarpalika, SUNSARI",87.26501806427902,26.672764169614776
69,Koshi Gaunpalika,SUNSARI,1,"Koshi Gaunpalika, SUNSARI",87.00720009535483,26.567143431681842
70,Ramdhuni Nagarpalika,SUNSARI,1,"Ramdhuni Nagarpalika, SUNSARI",87.18064139436211,26.68763432930342
71,Koshi Tappu Wildlife Reserve,SUNSARI,1,"Koshi Tappu Wildlife Reserve, SUNSARI",87.02319900125079,26.652565340301276
72,Chaubise Gaunpalika,DHANKUTA,1,"Chaubise Gaunpalika, DHANKUTA",87.47508009883704,26.914219506935208
73,Chhathar Jorpati Gaunpalika,DHANKUTA,1,"Chhathar Jorpati Gaunpalika, DHANKUTA",87.38795098870409,27.026758558870718
74,Dhankuta Nagarpalika,DHANKUTA,1,"Dhankuta Nagarpalika, DHANKUTA",87.3284146175447,26.983257910632943
75,Shahidbhumi Gaunpalika,DHANKUTA,1,"Shahidbhumi Gaunpalika, DHANKUTA",87.21631757163276,26.954917054010895
76,Mahalaxmi Nagarpalika,DHANKUTA,1,"Mahalaxmi Nagarpalika, DHANKUTA",87.33013836064269,27.137050785068467
77,Pakhribas Nagarpalika,DHANKUTA,1,"Pakhribas Nagarpalika, DHANKUTA",87.25188476038396,27.052543538038133
78,Sangurigadhi Gaunpalika,DHANKUTA,1,"Sangurigadhi Gaunpalika, DHANKUTA",87.30747366224197,26.89613828659282
79,Aathrai Gaunpalika,TERHATHUM,1,"Aathrai Gaunpalika, TERHATHUM",87.66114957775187,27.21430327345042
80,Chhathar Gaunpalika,TERHATHUM,1,"Chhathar Gaunpalika, TERHATHUM",87.47911392464258,27.040390654485694
81,Laligurans Nagarpalika,TERHATHUM,1,"Laligurans Nagarpalika, TERHATHUM",87.44813012882341,27.127991575922803
82,Menchayam Gaunpalika,TERHATHUM,1,"Menchayam Gaunpalika, TERHATHUM",87.52090063997254,27.244228830661072
83,Myanglung Nagarpalika,TERHATHUM,1,"Myanglung Nagarpalika, TERHATHUM",87.52608810939937,27.138794066455556
84,Phedap Gaunpalika,TERHATHUM,1,"Phedap Gaunpalika, TERHATHUM",87.584611915295,27.18039983583364
85,Bhotkhola Gaunpalika,SANKHUWASABHA,1,"Bhotkhola Gaunpalika, SANKHUWASABHA",87.44875778036518,27.75903488595988
86,Chainpur Nagarpalika,SANKHUWASABHA,1,"Chainpur Nagarpalika, SANKHUWASABHA",87.3613188169103,27.305258625818524
87,Chichila Gaunpalika,SANKHUWASABHA,1,"Chichila Gaunpalika, SANKHUWASABHA",87.23194064727629,27.480048587337045
88,Dharmadevi Nagarpalika,SANKHUWASABHA,1,"Dharmadevi Nagarpalika, SANKHUWASABHA",87.34616806994649,27.207940912385446
89,Khandbari Nagarpalika,SANKHUWASABHA,1,"Khandbari Nagarpalika, SANKHUWASABHA",87.19300439391277,27.399044388255454
90,Madi Nagarpalika,SANKHUWASABHA,1,"Madi Nagarpalika, SANKHUWASABHA",87.41563739800867,27.257208817752154
91,Makalu Gaunpalika,SANKHUWASABHA,1,"Makalu Gaunpalika, SANKHUWASABHA",87.22505230305657,27.684773989828035
92,Panchakhapan Nagarpalika,SANKHUWASABHA,1,"Panchakhapan Nagarpalika, SANKHUWASABHA",87.30719023808476,27.355015144901152
93,Sabhapokhari Gaunpalika,SANKHUWASABHA,1,"Sabhapokhari Gaunpalika, SANKHUWASABHA",87.3616548180651,27.44749840569569
94,Silichong Gaunpalika,SANKHUWASABHA,1,"Silichong Gaunpalika, SANKHUWASABHA",87.05397297005193,27.560620226797553
95,Aamchowk Gaunpalika,BHOJPUR,1,"Aamchowk Gaunpalika, BHOJPUR",87.02139644210634,26.964873266717298
96,Arun Gaunpalika,BHOJPUR,1,"Arun Gaunpalika, BHOJPUR",87.1965444966043,27.189819018711955
97,Bhojpur Nagarpalika,BHOJPUR,1,"Bhojpur Nagarpalika, BHOJPUR",87.05811373207457,27.201995335651336
98,Hatuwagadhi Gaunpalika,BHOJPUR,1,"Hatuwagadhi Gaunpalika, BHOJPUR",87.12910870595967,27.004167281388373
99,Pauwadungma Gaunpalika,BHOJPUR,1,"Pauwadungma Gaunpalika, BHOJPUR",87.14504183512426,27.125404106763337
100,Ramprasad Rai Gaunpalika,BHOJPUR,1,"Ramprasad Rai Gaunpalika, BHOJPUR",87.02136246070374,27.08525731393673
101,Salpasilichho Gaunpalika,BHOJPUR,1,"Salpasilichho Gaunpalika, BHOJPUR",87.00329400226362,27.398849500894993
102,Shadananda Nagarpalika,BHOJPUR,1,"Shadananda Nagarpalika, BHOJPUR",87.10887059724884,27.330047590255766
103,Tyamkemaiyung Gaunpalika,BHOJPUR,1,"Tyamkemaiyung Gaunpalika, BHOJPUR",86.96602710262624,27.210505901364435
104,Thulung Dudhkoshi Gaunpalika,SOLUKHUMBU,1,"Thulung Dudhkoshi Gaunpalika, SOLUKHUMBU",86.69881611978843,27.429909574047596
105,Dudhkoshi Gaunpalika,SOLUKHUMBU,1,"Dudhkoshi Gaunpalika, SOLUKHUMBU",86.6929455807104,27.53331720283609
106,Khumbupasanglahmu Gaunpalika,SOLUKHUMBU,1,"Khumbupasanglahmu Gaunpalika, SOLUKHUMBU",86.72677003185562,27.87754547236744
107,Likhupike Gaunpalika,SOLUKHUMBU,1,"Likhupike Gaunpalika, SOLUKHUMBU",86.43720083820502,27.556936265469083
108,Mahakulung Gaunpalika,SOLUKHUMBU,1,"Mahakulung Gaunpalika, SOLUKHUMBU",86.9020906833269,27.64476684781665
109,Nechasalyan Gaunpalika,SOLUKHUMBU,1,"Nechasalyan Gaunpalika, SOLUKHUMBU",86.6018281093896,27.38498311441631
110,Solududhakunda Nagarpalika,SOLUKHUMBU,1,"Solududhakunda Nagarpalika, SOLUKHUMBU",86.57187533198888,27.574676493373595
111,Sotang Gaunpalika,SOLUKHUMBU,1,"Sotang Gaunpalika, SOLUKHUMBU",86.78686617590954,27.496994408985273
112,Champadevi Gaunpalika,OKHALDHUNGA,1,"Champadevi Gaunpalika, OKHALDHUNGA",86.2914766841911,27.310325607705995
113,Chisankhugadhi Gaunpalika,OKHALDHUNGA,1,"Chisankhugadhi Gaunpalika, OKHALDHUNGA",86.61450252092357,27.30738324713749
114,Khijidemba Gaunpalika,OKHALDHUNGA,1,"Khijidemba Gaunpalika, OKHALDHUNGA",86.36239112073977,27.453588167862257
115,Likhu Gaunpalika,OKHALDHUNGA,1,"Likhu Gaunpalika, OKHALDHUNGA",86.26662373173387,27.380934838063176
116,Manebhanjyang Gaunpalika,OKHALDHUNGA,1,"Manebhanjyang Gaunpalika, OKHALDHUNGA",86.4686303123149,27.217207801700717
117,Molung Gaunpalika,OKHALDHUNGA,1,"Molung Gaunpalika, OKHALDHUNGA",86.42803829333721,27.365482874756875
118,Siddhicharan Nagarpalika,OKHALDHUNGA,1,"Siddhicharan Nagarpalika, OKHALDHUNGA",86.5140804236192,27.323665136526763
119,Sunkoshi Gaunpalika,OKHALDHUNGA,1,"Sunkoshi Gaunpalika, OKHALDHUNGA",86.37243059930945,27.269797537137908
120,Ainselukhark Gaunpalika,KHOTANG,1,"Ainselukhark Gaunpalika, KHOTANG",86.76130212782054,27.37198712784144
121,Barahapokhari Gaunpalika,KHOTANG,1,"Barahapokhari Gaunpalika, KHOTANG",86.82316882733224,26.935090096005354
122,Diprung Gaunpalika,KHOTANG,1,"Diprung Gaunpalika, KHOTANG",86.78878926675483,27.103880249409528
123,Halesi Tuwachung Nagarpalika,KHOTANG,1,"Halesi Tuwachung Nagarpalika, KHOTANG",86.6039933020818,27.16672665866744
124,Jantedhunga Gaunpalika,KHOTANG,1,"Jantedhunga Gaunpalika, KHOTANG",86.91389619719729,26.97348859402558
125,Kepilasagadhi Gaunpalika,KHOTANG,1,"Kepilasagadhi Gaunpalika, KHOTANG",86.8840552524964,27.34486404894259
126,Khotehang Gaunpalika,KHOTANG,1,"Khotehang Gaunpalika, KHOTANG",86.8505968107971,27.048232716683533
127,Rawa Besi Gaunpalika,KHOTANG,1,"Rawa Besi Gaunpalika, KHOTANG",86.71022871637193,27.27882284865845
128,Rupakot Majhuwagadhi Nagarpalika,KHOTANG,1,"Rupakot Majhuwagadhi Nagarpalika, KHOTANG",86.80263753310513,27.23312526566604
129,Sakela Gaunpalika,KHOTANG,1,"Sakela Gaunpalika, KHOTANG",86.88093322590981,27.172400529929085
130,Belaka Nagarpalika,UDAYAPUR,1,"Belaka Nagarpalika, UDAYAPUR",87.05011531106368,26.824578497064234
131,Chaudandigadhi Nagarpalika,UDAYAPUR,1,"Chaudandigadhi Nagarpalika, UDAYAPUR",86.88031113166636,26.808805494142938
132,Katari Nagarpalika,UDAYAPUR,1,"Katari Nagarpalika, UDAYAPUR",86.38422428101775,26.998960662959465
133,Rautamai Gaunpalika,UDAYAPUR,1,"Rautamai Gaunpalika, UDAYAPUR",86.67121482322285,26.982091998263044
134,Sunkoshi Gaunpalika,UDAYAPUR,1,"Sunkoshi Gaunpalika, UDAYAPUR",86.640943981074,27.08721837646952
135,Tapli Gaunpalika,UDAYAPUR,1,"Tapli Gaunpalika, UDAYAPUR",86.54298826297693,27.078455139666623
136,Triyuga Nagarpalika,UDAYAPUR,1,"Triyuga Nagarpalika, UDAYAPUR",86.69094015333486,26.806982643943016
137,Udayapurgadhi Gaunpalika,UDAYAPUR,1,"Udayapurgadhi Gaunpalika, UDAYAPUR",86.53654259710966,26.937788398397664
138,Koshi Tappu Wildlife Reserve,UDAYAPUR,1,"Koshi Tappu Wildlife Reserve, UDAYAPUR",86.99861606422533,26.715030180361126
139,Agnisair Krishna Savaran Gaunpalika,SAPTARI,2,"Agnisair Krishna Savaran Gaunpalika, SAPTARI",86.79455389610345,26.647168121374058
140,Balan Bihul Gaunpalika,SAPTARI,2,"Balan Bihul Gaunpalika, SAPTARI",86.51967240635715,26.57158368010006
141,Belhi Chapena Gaunpalika,SAPTARI,2,"Belhi Chapena Gaunpalika, SAPTARI",86.67319214493537,26.49547978097521
142,Bishnupur Gaunpalika,SAPTARI,2,"Bishnupur Gaunpalika, SAPTARI",86.71791608738211,26.51869370471819
143,Bode Barsain Nagarpalika,SAPTARI,2,"Bode Barsain Nagarpalika, SAPTARI",86.57145726512945,26.564509172032896
144,Chhinnamasta Gaunpalika,SAPTARI,2,"Chhinnamasta Gaunpalika, SAPTARI",86.7316695603939,26.46207957287084
145,Dakneshwori Nagarpalika,SAPTARI,2,"Dakneshwori Nagarpalika, SAPTARI",86.63048483272334,26.530241948658578
146,Hanumannagar Kankalini Nagarpalika,SAPTARI,2,"Hanumannagar Kankalini Nagarpalika, SAPTARI",86.87630741269002,26.51255225081874
147,Kanchanrup Nagarpalika,SAPTARI,2,"Kanchanrup Nagarpalika, SAPTARI",86.8982850990191,26.636182471634125
148,Khadak Nagarpalika,SAPTARI,2,"Khadak Nagarpalika, SAPTARI",86.6046649776483,26.640823601984902
149,Mahadeva Gaunpalika,SAPTARI,2,"Mahadeva Gaunpalika, SAPTARI",86.8157551337889,26.550706614549433
150,Rajbiraj Nagarpalika,SAPTARI,2,"Rajbiraj Nagarpalika, SAPTARI",86.76546160882397,26.535569552476606
151,Rupani Gaunpalika,SAPTARI,2,"Rupani Gaunpalika, SAPTARI",86.72973278496815,26.612721339112248
152,Saptakoshi Nagarpalika,SAPTARI,2,"Saptakoshi Nagarpalika, SAPTARI",86.92736714268692,26.710714954675847
153,Shambhunath Nagarpalika,SAPTARI,2,"Shambhunath Nagarpalika, SAPTARI",86.68210673328497,26.63824335117174
154,Surunga Nagarpalika,SAPTARI,2,"Surunga Nagarpalika, SAPTARI",86.53968997473386,26.699457821723406
155,Tilathi Koiladi Gaunpalika,SAPTARI,2,"Tilathi Koiladi Gaunpalika, SAPTARI",86.80615090955278,26.48956299256944
156,Tirahut Gaunpalika,SAPTARI,2,"Tirahut Gaunpalika, SAPTARI",86.85344792153664,26.593352839753788
157,Koshi Tappu Wildlife Reserve,SAPTARI,2,"Koshi Tappu Wildlife Reserve, SAPTARI",86.97074962885598,26.642044585709815
158,Arnama Gaunpalika,SIRAHA,2,"Arnama Gaunpalika, SIRAHA",86.28835955556026,26.69620471179861
159,Aurahi Gaunpalika,SIRAHA,2,"Aurahi Gaunpalika, SIRAHA",86.30663832849547,26.642293064835595
160,Bariyarpatti Gaunpalika,SIRAHA,2,"Bariyarpatti Gaunpalika, SIRAHA",86.36712916328862,26.630308631073255
161,Bhagawanpur Gaunpalika,SIRAHA,2,"Bhagawanpur Gaunpalika, SIRAHA",86.47196899760249,26.586166115168446
162,Bishnupur Gaunpalika,SIRAHA,2,"Bishnupur Gaunpalika, SIRAHA",86.25132477781092,26.72893215895602
163,Dhangadhimai Nagarpalika,SIRAHA,2,"Dhangadhimai Nagarpalika, SIRAHA",86.4137632244977,26.810763494125563
164,Golbazar Nagarpalika,SIRAHA,2,"Golbazar Nagarpalika, SIRAHA",86.34391730299558,26.814781584749724
165,Kalyanpur Nagarpalika,SIRAHA,2,"Kalyanpur Nagarpalika, SIRAHA",86.19971542477374,26.76055524343498
166,Karjanha Nagarpalika,SIRAHA,2,"Karjanha Nagarpalika, SIRAHA",86.1795375708109,26.868246610876728
167,Lahan Nagarpalika,SIRAHA,2,"Lahan Nagarpalika, SIRAHA",86.48123664927589,26.756802051515475
168,Laxmipur Patari Gaunpalika,SIRAHA,2,"Laxmipur Patari Gaunpalika, SIRAHA",86.41245498205856,26.6688803860155
169,Mirchaiya Nagarpalika,SIRAHA,2,"Mirchaiya Nagarpalika, SIRAHA",86.25760605182235,26.83535987393494
170,Naraha Gaunpalika,SIRAHA,2,"Naraha Gaunpalika, SIRAHA",86.27986696982387,26.775199976515644
171,Nawarajpur Gaunpalika,SIRAHA,2,"Nawarajpur Gaunpalika, SIRAHA",86.43276639300687,26.607965128355687
172,Sakhuwanankarkatti Gaunpalika,SIRAHA,2,"Sakhuwanankarkatti Gaunpalika, SIRAHA",86.46929958691615,26.636869124832586
173,Siraha Nagarpalika,SIRAHA,2,"Siraha Nagarpalika, SIRAHA",86.21959564536927,26.647487068481094
174,Sukhipur Nagarpalika,SIRAHA,2,"Sukhipur Nagarpalika, SIRAHA",86.35030380259977,26.696697231088972
175,Aaurahi Gaunpalika,DHANUSHA,2,"Aaurahi Gaunpalika, DHANUSHA",86.01576181981626,26.71184920495133
176,Bateshwor Gaunpalika,DHANUSHA,2,"Bateshwor Gaunpalika, DHANUSHA",85.9228116219426,26.88512222718378
177,Bideha Nagarpalika,DHANUSHA,2,"Bideha Nagarpalika, DHANUSHA",86.0604391990411,26.6790132802175
178,Chhireshwornath Nagarpalika,DHANUSHA,2,"Chhireshwornath Nagarpalika, DHANUSHA",85.97342791865358,26.846579970468696
179,Dhanauji Gaunpalika,DHANUSHA,2,"Dhanauji Gaunpalika, DHANUSHA",85.9832831687284,26.6773345621834
180,Dhanusadham Nagarpalika,DHANUSHA,2,"Dhanusadham Nagarpalika, DHANUSHA",86.04314032779467,26.874248948408844
181,Ganeshman Charnath Nagarpalika,DHANUSHA,2,"Ganeshman Charnath Nagarpalika, DHANUSHA",86.12338368355238,26.939341388860804
182,Hansapur Nagarpalika,DHANUSHA,2,"Hansapur Nagarpalika, DHANUSHA",86.0275978678834,26.75806964004329
183,Janaknandani Gaunpalika,DHANUSHA,2,"Janaknandani Gaunpalika, DHANUSHA",86.13379707087171,26.644672930192346
184,Janakpur Upamahanagarpalika,DHANUSHA,2,"Janakpur Upamahanagarpalika, DHANUSHA",85.93437545507147,26.72577239443126
185,Kamala Nagarpalika,DHANUSHA,2,"Kamala Nagarpalika, DHANUSHA",86.1559730521473,26.699608532163506
186,Lakshminiya Gaunpalika,DHANUSHA,2,"Lakshminiya Gaunpalika, DHANUSHA",85.93424287728344,26.798226523023345
187,Mithila Nagarpalika,DHANUSHA,2,"Mithila Nagarpalika, DHANUSHA",85.96482730052577,26.979098581442724
188,Mithila Bihari Nagarpalika,DHANUSHA,2,"Mithila Bihari Nagarpalika, DHANUSHA",86.00114273889412,26.79751383672285
189,Mukhiyapatti Musarmiya Gaunpalika,DHANUSHA,2,"Mukhiyapatti Musarmiya Gaunpalika, DHANUSHA",85.87857354526764,26.60429192256759
190,Nagarain Nagarpalika,DHANUSHA,2,"Nagarain Nagarpalika, DHANUSHA",85.92462256450341,26.64442526166083
191,Sabaila Nagarpalika,DHANUSHA,2,"Sabaila Nagarpalika, DHANUSHA",86.1023002802007,26.798799160660717
192,Sahidnagar Nagarpalika,DHANUSHA,2,"Sahidnagar Nagarpalika, DHANUSHA",86.10684081501142,26.735078748402476
193,Aurahi Nagarpalika,MAHOTTARI,2,"Aurahi Nagarpalika, MAHOTTARI",85.80074409191909,26.865964865282237
194,Balwa Nagarpalika,MAHOTTARI,2,"Balwa Nagarpalika, MAHOTTARI",85.8194811066334,26.76853719727175
195,Bardibas Nagarpalika,MAHOTTARI,2,"Bardibas Nagarpalika, MAHOTTARI",85.85534241754493,27.036061768200923
196,Bhangaha Nagarpalika,MAHOTTARI,2,"Bhangaha Nagarpalika, MAHOTTARI",85.8721348995328,26.84942853279054
197,Ekdanra Gaunpalika,MAHOTTARI,2,"Ekdanra Gaunpalika, MAHOTTARI",85.7650270639101,26.68746312373656
198,Gaushala Nagarpalika,MAHOTTARI,2,"Gaushala Nagarpalika, MAHOTTARI",85.7815943483956,26.949544109379303
199,Jaleswor Nagarpalika,MAHOTTARI,2,"Jaleswor Nagarpalika, MAHOTTARI",85.79962664814045,26.646709917775112
200,Loharpatti Nagarpalika,MAHOTTARI,2,"Loharpatti Nagarpalika, MAHOTTARI",85.86511745027967,26.76959483650845
201,Mahottari Gaunpalika,MAHOTTARI,2,"Mahottari Gaunpalika, MAHOTTARI",85.81176561308524,26.70349454934658
202,Manra Siswa Nagarpalika,MAHOTTARI,2,"Manra Siswa Nagarpalika, MAHOTTARI",85.75339161828744,26.724769987204194
203,Matihani Nagarpalika,MAHOTTARI,2,"Matihani Nagarpalika, MAHOTTARI",85.85989304524632,26.64282941819827
204,Pipra Gaunpalika,MAHOTTARI,2,"Pipra Gaunpalika, MAHOTTARI",85.86845813210954,26.69445418648412
205,Ramgopalpur Nagarpalika,MAHOTTARI,2,"Ramgopalpur Nagarpalika, MAHOTTARI",85.78361611102287,26.810063452825382
206,Samsi Gaunpalika,MAHOTTARI,2,"Samsi Gaunpalika, MAHOTTARI",85.7478853226957,26.805804971649604
207,Sonama Gaunpalika,MAHOTTARI,2,"Sonama Gaunpalika, MAHOTTARI",85.72299789759283,26.86700354686678
208,Bagmati Nagarpalika,SARLAHI,2,"Bagmati Nagarpalika, SARLAHI",85.47724339470338,27.077737093609947
209,Balara Nagarpalika,SARLAHI,2,"Balara Nagarpalika, SARLAHI",85.36873145911235,26.795306907623658
210,Barahathawa Nagarpalika,SARLAHI,2,"Barahathawa Nagarpalika, SARLAHI",85.4538020758805,26.9817961462055
211,Basbariya Gaunpalika,SARLAHI,2,"Basbariya Gaunpalika, SARLAHI",85.43937465131971,26.926056095413077
212,Bishnu Gaunpalika,SARLAHI,2,"Bishnu Gaunpalika, SARLAHI",85.4726939765918,26.81544921200346
213,Bramhapuri Gaunpalika,SARLAHI,2,"Bramhapuri Gaunpalika, SARLAHI",85.60990547155654,26.890267726931913
214,Chakraghatta Gaunpalika,SARLAHI,2,"Chakraghatta Gaunpalika, SARLAHI",85.50982774222119,26.899993120095022
215,Chandranagar Gaunpalika,SARLAHI,2,"Chandranagar Gaunpalika, SARLAHI",85.60054713956988,26.937547024523536
216,Dhankaul Gaunpalika,SARLAHI,2,"Dhankaul Gaunpalika, SARLAHI",85.40925418325808,26.883077785431677
217,Godaita Nagarpalika,SARLAHI,2,"Godaita Nagarpalika, SARLAHI",85.44567024226158,26.844414821914064
218,Haripur Nagarpalika,SARLAHI,2,"Haripur Nagarpalika, SARLAHI",85.54846832160565,27.011273406058475
219,Haripurwa Nagarpalika,SARLAHI,2,"Haripurwa Nagarpalika, SARLAHI",85.68691408594863,26.91471570046925
220,Hariwan Nagarpalika,SARLAHI,2,"Hariwan Nagarpalika, SARLAHI",85.5742448163752,27.10064150011748
221,Ishworpur Nagarpalika,SARLAHI,2,"Ishworpur Nagarpalika, SARLAHI",85.69394436092047,27.00935086990593
222,Kabilasi Nagarpalika,SARLAHI,2,"Kabilasi Nagarpalika, SARLAHI",85.53686748260009,26.941122897010597
223,Kaudena Gaunpalika,SARLAHI,2,"Kaudena Gaunpalika, SARLAHI",85.50729032310427,26.858788830249004
224,Lalbandi Nagarpalika,SARLAHI,2,"Lalbandi Nagarpalika, SARLAHI",85.68904014414724,27.102908562213816
225,Malangawa Nagarpalika,SARLAHI,2,"Malangawa Nagarpalika, SARLAHI",85.54787157619769,26.85880999640889
226,Parsa Gaunpalika,SARLAHI,2,"Parsa Gaunpalika, SARLAHI",85.65388242731395,26.87371430071847
227,Ramnagar Gaunpalika,SARLAHI,2,"Ramnagar Gaunpalika, SARLAHI",85.38160664030646,26.838188597255954
228,Dudhouli Nagarpalika,SINDHULI,3,"Dudhouli Nagarpalika, SINDHULI",86.23876082265076,27.03262850837361
229,Ghanglekh Gaunpalika,SINDHULI,3,"Ghanglekh Gaunpalika, SINDHULI",85.78627721772051,27.34339164359219
230,Golanjor Gaunpalika,SINDHULI,3,"Golanjor Gaunpalika, SINDHULI",86.06759680334893,27.252220688892645
231,Hariharpurgadhi Gaunpalika,SINDHULI,3,"Hariharpurgadhi Gaunpalika, SINDHULI",85.54107741287123,27.251675803991596
232,Kamalamai Nagarpalika,SINDHULI,3,"Kamalamai Nagarpalika, SINDHULI",85.93063021083103,27.187845631466026
233,Marin Gaunpalika,SINDHULI,3,"Marin Gaunpalika, SINDHULI",85.69732685188112,27.255397992772345
234,Phikkal Gaunpalika,SINDHULI,3,"Phikkal Gaunpalika, SINDHULI",86.28613998528562,27.18698096744044
235,Sunkoshi Gaunpalika,SINDHULI,3,"Sunkoshi Gaunpalika, SINDHULI",85.88149960864118,27.3796760876252
236,Tinpatan Gaunpalika,SINDHULI,3,"Tinpatan Gaunpalika, SINDHULI",86.13218735377293,27.133885275149474
237,Doramba Gaunpalika,RAMECHHAP,3,"Doramba Gaunpalika, RAMECHHAP",85.9212041198013,27.54942028003481
238,Gokulganga Gaunpalika,RAMECHHAP,3,"Gokulganga Gaunpalika, RAMECHHAP",86.26427947428674,27.57639768484465
239,Khadadevi Gaunpalika,RAMECHHAP,3,"Khadadevi Gaunpalika, RAMECHHAP",85.94304798748983,27.43821222128708
240,Likhu Tamakoshi Gaunpalika,RAMECHHAP,3,"Likhu Tamakoshi Gaunpalika, RAMECHHAP",86.18327463361327,27.439344178198265
241,Manthali Nagarpalika,RAMECHHAP,3,"Manthali Nagarpalika, RAMECHHAP",86.06437291002645,27.4088126314304
242,Ramechhap Nagarpalika,RAMECHHAP,3,"Ramechhap Nagarpalika, RAMECHHAP",86.14646934983271,27.31615919238603
243,Sunapati Gaunpalika,RAMECHHAP,3,"Sunapati Gaunpalika, RAMECHHAP",85.85587234261853,27.49575838973422
244,Umakunda Gaunpalika,RAMECHHAP,3,"Umakunda Gaunpalika, RAMECHHAP",86.42243288685957,27.66096989555344
245,Baiteshwor Gaunpalika,DOLAKHA,3,"Baiteshwor Gaunpalika, DOLAKHA",86.12823121933785,27.63436273732516
246,Bhimeshwor Nagarpalika,DOLAKHA,3,"Bhimeshwor Nagarpalika, DOLAKHA",86.01806083631928,27.687083547999144
247,Bigu Gaunpalika,DOLAKHA,3,"Bigu Gaunpalika, DOLAKHA",86.1587175829985,27.935636983617126
248,Gaurishankar Gaunpalika,DOLAKHA,3,"Gaurishankar Gaunpalika, DOLAKHA",86.34343328738771,27.823557633034874
249,Jiri Nagarpalika,DOLAKHA,3,"Jiri Nagarpalika, DOLAKHA",86.28309064186539,27.663564401190122
250,Kalinchok Gaunpalika,DOLAKHA,3,"Kalinchok Gaunpalika, DOLAKHA",86.08848701024237,27.749750036170063
251,Melung Gaunpalika,DOLAKHA,3,"Melung Gaunpalika, DOLAKHA",86.04342321285694,27.54425291452662
252,Sailung Gaunpalika,DOLAKHA,3,"Sailung Gaunpalika, DOLAKHA",85.97946165218423,27.61811145760208
253,Tamakoshi Gaunpalika,DOLAKHA,3,"Tamakoshi Gaunpalika, DOLAKHA",86.12174807877311,27.545613180117275
254,Balefi Gaunpalika,SINDHUPALCHOK,3,"Balefi Gaunpalika, SINDHUPALCHOK",85.80359914733752,27.78123334033607
255,Barhabise Nagarpalika,SINDHUPALCHOK,3,"Barhabise Nagarpalika, SINDHUPALCHOK",85.90010912895596,27.82177247881243
256,Bhotekoshi Gaunpalika,SINDHUPALCHOK,3,"Bhotekoshi Gaunpalika, SINDHUPALCHOK",85.93622448197968,27.918085332003443
257,Chautara SangachokGadhi Nagarpalika,SINDHUPALCHOK,3,"Chautara SangachokGadhi Nagarpalika, SINDHUPALCHOK",85.71978147602468,27.757954074015938
258,Helambu Gaunpalika,SINDHUPALCHOK,3,"Helambu Gaunpalika, SINDHUPALCHOK",85.52816926890235,28.00049305031663
259,Indrawati Gaunpalika,SINDHUPALCHOK,3,"Indrawati Gaunpalika, SINDHUPALCHOK",85.63899467205596,27.783960646997464
260,Jugal Gaunpalika,SINDHUPALCHOK,3,"Jugal Gaunpalika, SINDHUPALCHOK",85.79108507480882,28.01549022064833
261,Lisangkhu Pakhar Gaunpalika,SINDHUPALCHOK,3,"Lisangkhu Pakhar Gaunpalika, SINDHUPALCHOK",85.87576875948119,27.673695009191768
262,Melamchi Nagarpalika,SINDHUPALCHOK,3,"Melamchi Nagarpalika, SINDHUPALCHOK",85.54086094513328,27.826496736989192
263,Panchpokhari Thangpal Gaunpalika,SINDHUPALCHOK,3,"Panchpokhari Thangpal Gaunpalika, SINDHUPALCHOK",85.64347922708575,28.01360488590566
264,Sunkoshi Gaunpalika,SINDHUPALCHOK,3,"Sunkoshi Gaunpalika, SINDHUPALCHOK",85.80692945438561,27.70952644870907
265,Tripurasundari Gaunpalika,SINDHUPALCHOK,3,"Tripurasundari Gaunpalika, SINDHUPALCHOK",85.9452942638178,27.752879260429054
266,Banepa Nagarpalika,KABHREPALANCHOK,3,"Banepa Nagarpalika, KABHREPALANCHOK",85.5136159354666,27.648341425373708
267,Bethanchowk Gaunpalika,KABHREPALANCHOK,3,"Bethanchowk Gaunpalika, KABHREPALANCHOK",85.49598878460864,27.507034495301358
268,Bhumlu Gaunpalika,KABHREPALANCHOK,3,"Bhumlu Gaunpalika, KABHREPALANCHOK",85.74575178047189,27.63632207450936
269,Chaurideurali Gaunpalika,KABHREPALANCHOK,3,"Chaurideurali Gaunpalika, KABHREPALANCHOK",85.80512721921365,27.580810884280158
270,Dhulikhel Nagarpalika,KABHREPALANCHOK,3,"Dhulikhel Nagarpalika, KABHREPALANCHOK",85.57227898142385,27.617968031795083
271,Khanikhola Gaunpalika,KABHREPALANCHOK,3,"Khanikhola Gaunpalika, KABHREPALANCHOK",85.49675386464777,27.428756877489587
272,Mahabharat Gaunpalika,KABHREPALANCHOK,3,"Mahabharat Gaunpalika, KABHREPALANCHOK",85.62166937795666,27.39239584503363
273,Mandandeupur Nagarpalika,KABHREPALANCHOK,3,"Mandandeupur Nagarpalika, KABHREPALANCHOK",85.59866845486182,27.710221905138358
274,Namobuddha Nagarpalika,KABHREPALANCHOK,3,"Namobuddha Nagarpalika, KABHREPALANCHOK",85.63978934635614,27.55322511571314
275,Panauti Nagarpalika,KABHREPALANCHOK,3,"Panauti Nagarpalika, KABHREPALANCHOK",85.47827187749238,27.577256663809365
276,Panchkhal Nagarpalika,KABHREPALANCHOK,3,"Panchkhal Nagarpalika, KABHREPALANCHOK",85.63862387511877,27.636981508620764
277,Roshi Gaunpalika,KABHREPALANCHOK,3,"Roshi Gaunpalika, KABHREPALANCHOK",85.67118523050581,27.470431564881252
278,Temal Gaunpalika,KABHREPALANCHOK,3,"Temal Gaunpalika, KABHREPALANCHOK",85.75713436614224,27.509665616796035
279,Bagmati Gaunpalika,LALITPUR,3,"Bagmati Gaunpalika, LALITPUR",85.30411283852636,27.484318805482186
280,Godawari Nagarpalika,LALITPUR,3,"Godawari Nagarpalika, LALITPUR",85.33558222850648,27.584560893611876
281,Konjyosom Gaunpalika,LALITPUR,3,"Konjyosom Gaunpalika, LALITPUR",85.35024096329188,27.530474358048192
282,Lalitpur Mahanagarpalika,LALITPUR,3,"Lalitpur Mahanagarpalika, LALITPUR",85.31574657269933,27.65059945503801
283,Mahalaxmi Nagarpalika,LALITPUR,3,"Mahalaxmi Nagarpalika, LALITPUR",85.38023575839851,27.635086978757144
284,Mahankal Gaunpalika,LALITPUR,3,"Mahankal Gaunpalika, LALITPUR",85.39884140586203,27.487752342197673
285,Bhaktapur Nagarpalika,BHAKTAPUR,3,"Bhaktapur Nagarpalika, BHAKTAPUR",85.42961727472849,27.675017765952255
286,Changunarayan Nagarpalika,BHAKTAPUR,3,"Changunarayan Nagarpalika, BHAKTAPUR",85.46272783460991,27.696268407446233
287,Madhyapur Thimi Nagarpalika,BHAKTAPUR,3,"Madhyapur Thimi Nagarpalika, BHAKTAPUR",85.3815368922604,27.68250839610544
288,Suryabinayak Nagarpalika,BHAKTAPUR,3,"Suryabinayak Nagarpalika, BHAKTAPUR",85.42546525137541,27.649272759398524
289,Budhanilakantha Nagarpalika,KATHMANDU,3,"Budhanilakantha Nagarpalika, KATHMANDU",85.36228522216304,27.77230608719983
290,Chandragiri Nagarpalika,KATHMANDU,3,"Chandragiri Nagarpalika, KATHMANDU",85.22955137432947,27.68688537932627
291,Dakshinkali Nagarpalika,KATHMANDU,3,"Dakshinkali Nagarpalika, KATHMANDU",85.2611387028637,27.616216866895083
292,Gokarneshwor Nagarpalika,KATHMANDU,3,"Gokarneshwor Nagarpalika, KATHMANDU",85.4139702034434,27.77394252937581
293,Kageshwori Manahora Nagarpalika,KATHMANDU,3,"Kageshwori Manahora Nagarpalika, KATHMANDU",85.41926836964892,27.735163344689745
294,Kathmandu Mahanagarpalika,KATHMANDU,3,"Kathmandu Mahanagarpalika, KATHMANDU",85.32727724900433,27.70902343242837
295,Kirtipur Nagarpalika,KATHMANDU,3,"Kirtipur Nagarpalika, KATHMANDU",85.27515324368537,27.666789957060622
296,Nagarjun Nagarpalika,KATHMANDU,3,"Nagarjun Nagarpalika, KATHMANDU",85.26139008784662,27.727294129254897
297,Shankharapur Nagarpalika,KATHMANDU,3,"Shankharapur Nagarpalika, KATHMANDU",85.49904538540555,27.75356201307565
298,Tarakeshwor Nagarpalika,KATHMANDU,3,"Tarakeshwor Nagarpalika, KATHMANDU",85.29706174533945,27.777744577248026
299,Tokha Nagarpalika,KATHMANDU,3,"Tokha Nagarpalika, KATHMANDU",85.33021381622285,27.775398959165827
300,Belkotgadhi Nagarpalika,NUWAKOT,3,"Belkotgadhi Nagarpalika, NUWAKOT",85.12286518944715,27.8249686912467
301,Bidur Nagarpalika,NUWAKOT,3,"Bidur Nagarpalika, NUWAKOT",85.13607411895133,27.925868921482977
302,Dupcheshwar Gaunpalika,NUWAKOT,3,"Dupcheshwar Gaunpalika, NUWAKOT",85.42628610767233,27.938025951866397
303,Kakani Gaunpalika,NUWAKOT,3,"Kakani Gaunpalika, NUWAKOT",85.23120013970583,27.81848259785385
304,Kispang Gaunpalika,NUWAKOT,3,"Kispang Gaunpalika, NUWAKOT",85.12538762877332,28.031660376011047
305,Likhu Gaunpalika,NUWAKOT,3,"Likhu Gaunpalika, NUWAKOT",85.224255622009,27.8929875517083
306,Myagang Gaunpalika,NUWAKOT,3,"Myagang Gaunpalika, NUWAKOT",85.05630066640893,27.98860546740734
307,Panchakanya Gaunpalika,NUWAKOT,3,"Panchakanya Gaunpalika, NUWAKOT",85.31475530662642,27.894080525397385
308,Shivapuri Gaunpalika,NUWAKOT,3,"Shivapuri Gaunpalika, NUWAKOT",85.37499568686069,27.85264821258166
309,Suryagadhi Gaunpalika,NUWAKOT,3,"Suryagadhi Gaunpalika, NUWAKOT",85.2525988832574,27.945382680844308
310,Tadi Gaunpalika,NUWAKOT,3,"Tadi Gaunpalika, NUWAKOT",85.32970153154605,27.95621809516482
311,Tarkeshwar Gaunpalika,NUWAKOT,3,"Tarkeshwar Gaunpalika, NUWAKOT",85.0392649595632,27.889666800484708
312,Shivapuri Watershed and Wildlife Reserve,NUWAKOT,3,"Shivapuri Watershed and Wildlife Reserve, NUWAKOT",85.36537795900513,27.818620150147343
313,Langtang National Park,NUWAKOT,3,"Langtang National Park, NUWAKOT",85.4386688802243,28.02347742464096
314,Gosaikunda Gaunpalika,RASUWA,3,"Gosaikunda Gaunpalika, RASUWA",85.50734351472948,28.212285524002496
315,Kalika Gaunpalika,RASUWA,3,"Kalika Gaunpalika, RASUWA",85.22204152175689,28.027185965968506
316,Naukunda Gaunpalika,RASUWA,3,"Naukunda Gaunpalika, RASUWA",85.30467460989631,28.02513634920398
317,Aamachodingmo Gaunpalika,RASUWA,3,"Aamachodingmo Gaunpalika, RASUWA",85.25092238126892,28.215507461730834
318,Uttargaya Gaunpalika,RASUWA,3,"Uttargaya Gaunpalika, RASUWA",85.18393600851056,28.087388375242938
319,Benighat Rorang Gaunpalika,DHADING,3,"Benighat Rorang Gaunpalika, DHADING",84.76647590463854,27.756397930671167
320,Dhunibesi Nagarpalika,DHADING,3,"Dhunibesi Nagarpalika, DHADING",85.17982428303463,27.729715266773788
321,Gajuri Gaunpalika,DHADING,3,"Gajuri Gaunpalika, DHADING",84.90321102847692,27.749569176438822
322,Galchi Gaunpalika,DHADING,3,"Galchi Gaunpalika, DHADING",84.98763539770918,27.79296733420372
323,Gangajamuna Gaunpalika,DHADING,3,"Gangajamuna Gaunpalika, DHADING",84.92984285937851,28.086444378370352
324,Jwalamukhi Gaunpalika,DHADING,3,"Jwalamukhi Gaunpalika, DHADING",84.79193693733883,27.92340345910128
325,Khaniyabash Gaunpalika,DHADING,3,"Khaniyabash Gaunpalika, DHADING",85.04256547911432,28.082336060937397
326,Netrawati Dabjong Gaunpalika,DHADING,3,"Netrawati Dabjong Gaunpalika, DHADING",84.97160241248125,27.986687650304678
327,Nilakantha Nagarpalika,DHADING,3,"Nilakantha Nagarpalika, DHADING",84.91955331597676,27.918863100049094
328,Rubi Valley Gaunpalika,DHADING,3,"Rubi Valley Gaunpalika, DHADING",85.09120210786973,28.222137470137863
329,Siddhalek Gaunpalika,DHADING,3,"Siddhalek Gaunpalika, DHADING",84.84535325342145,27.842558626376388
330,Thakre Gaunpalika,DHADING,3,"Thakre Gaunpalika, DHADING",85.06455044891088,27.73830550752131
331,Tripura Sundari Gaunpalika,DHADING,3,"Tripura Sundari Gaunpalika, DHADING",84.85804032066869,28.021805855252254
332,Bagmati Gaunpalika,MAKAWANPUR,3,"Bagmati Gaunpalika, MAKAWANPUR",85.39789874073325,27.304811006008144
333,Bakaiya Gaunpalika,MAKAWANPUR,3,"Bakaiya Gaunpalika, MAKAWANPUR",85.2528161597661,27.33247487325619
334,Bhimphedi Gaunpalika,MAKAWANPUR,3,"Bhimphedi Gaunpalika, MAKAWANPUR",85.10444284410414,27.527813825200386
335,Hetauda Upamahanagarpalika,MAKAWANPUR,3,"Hetauda Upamahanagarpalika, MAKAWANPUR",85.02721872271898,27.41592885306771
336,Indrasarowar Gaunpalika,MAKAWANPUR,3,"Indrasarowar Gaunpalika, MAKAWANPUR",85.1959534849471,27.593619845278994
337,Kailash Gaunpalika,MAKAWANPUR,3,"Kailash Gaunpalika, MAKAWANPUR",84.94931669133737,27.60952458704195
338,Makawanpurgadhi Gaunpalika,MAKAWANPUR,3,"Makawanpurgadhi Gaunpalika, MAKAWANPUR",85.13690832894625,27.445252603571547
339,Manahari Gaunpalika,MAKAWANPUR,3,"Manahari Gaunpalika, MAKAWANPUR",84.85137628634531,27.472569561221277
340,Raksirang Gaunpalika,MAKAWANPUR,3,"Raksirang Gaunpalika, MAKAWANPUR",84.83791405147413,27.5986734682027
341,Thaha Nagarpalika,MAKAWANPUR,3,"Thaha Nagarpalika, MAKAWANPUR",85.08608485975692,27.65156287441824
342,Parsa Wildlife Reserve,MAKAWANPUR,3,"Parsa Wildlife Reserve, MAKAWANPUR",84.7713050814354,27.495228785817126
343,Chitawan National Park,MAKAWANPUR,3,"Chitawan National Park, MAKAWANPUR",84.7062475762948,27.49261953647587
344,Baudhimai Nagarpalika,RAUTAHAT,2,"Baudhimai Nagarpalika, RAUTAHAT",85.21873090698146,26.890571833701657
345,Brindaban Nagarpalika,RAUTAHAT,2,"Brindaban Nagarpalika, RAUTAHAT",85.37353985175965,27.041323502532524
346,Chandrapur Nagarpalika,RAUTAHAT,2,"Chandrapur Nagarpalika, RAUTAHAT",85.36820118270585,27.138918539227138
347,Dewahhi Gonahi Nagarpalika,RAUTAHAT,2,"Dewahhi Gonahi Nagarpalika, RAUTAHAT",85.25920682199803,26.932042003275495
348,Durga Bhagwati Gaunpalika,RAUTAHAT,2,"Durga Bhagwati Gaunpalika, RAUTAHAT",85.32252184999537,26.83836669840033
349,Gadhimai Nagarpalika,RAUTAHAT,2,"Gadhimai Nagarpalika, RAUTAHAT",85.36778059342548,26.94231034203531
350,Garuda Nagarpalika,RAUTAHAT,2,"Garuda Nagarpalika, RAUTAHAT",85.3165078944719,26.953842477594925
351,Gaur Nagarpalika,RAUTAHAT,2,"Gaur Nagarpalika, RAUTAHAT",85.2747702185934,26.778214138081317
352,Gujara Nagarpalika,RAUTAHAT,2,"Gujara Nagarpalika, RAUTAHAT",85.26957759978043,27.104939430722634
353,Ishanath Nagarpalika,RAUTAHAT,2,"Ishanath Nagarpalika, RAUTAHAT",85.21340813502626,26.793456751228454
354,Katahariya Nagarpalika,RAUTAHAT,2,"Katahariya Nagarpalika, RAUTAHAT",85.2501799184933,26.995648061628657
355,Madhav Narayan Nagarpalika,RAUTAHAT,2,"Madhav Narayan Nagarpalika, RAUTAHAT",85.32943627301763,26.890934278115115
356,Maulapur Nagarpalika,RAUTAHAT,2,"Maulapur Nagarpalika, RAUTAHAT",85.2012431337517,26.929775648885474
357,Paroha Nagarpalika,RAUTAHAT,2,"Paroha Nagarpalika, RAUTAHAT",85.23482328308032,26.854800541804998
358,Phatuwa Bijayapur Nagarpalika,RAUTAHAT,2,"Phatuwa Bijayapur Nagarpalika, RAUTAHAT",85.20344867321685,27.0203813392297
359,Rajdevi Nagarpalika,RAUTAHAT,2,"Rajdevi Nagarpalika, RAUTAHAT",85.31520973371765,26.77783527252365
360,Rajpur Nagarpalika,RAUTAHAT,2,"Rajpur Nagarpalika, RAUTAHAT",85.25587224923471,26.816948141295168
361,Yemunamai Gaunpalika,RAUTAHAT,2,"Yemunamai Gaunpalika, RAUTAHAT",85.2968362694018,26.845565826314772
362,Adarshkotwal Gaunpalika,BARA,2,"Adarshkotwal Gaunpalika, BARA",85.14195400617076,26.944877000567242
363,Baragadhi Gaunpalika,BARA,2,"Baragadhi Gaunpalika, BARA",85.13617465976378,26.996558480165486
364,Bishrampur Gaunpalika,BARA,2,"Bishrampur Gaunpalika, BARA",84.90793399073075,26.987535594374098
365,Devtal Gaunpalika,BARA,2,"Devtal Gaunpalika, BARA",85.00474100723585,26.94375979136185
366,Jitpur Simara Upamahanagarpalika,BARA,2,"Jitpur Simara Upamahanagarpalika, BARA",85.00847428450143,27.20059459084905
367,Kalaiya Upamahanagarpalika,BARA,2,"Kalaiya Upamahanagarpalika, BARA",85.00937157272118,27.028954330438477
368,Karaiyamai Gaunpalika,BARA,2,"Karaiyamai Gaunpalika, BARA",85.09638463559027,27.036951003221944
369,Kolhabi Nagarpalika,BARA,2,"Kolhabi Nagarpalika, BARA",85.14550122387907,27.104202763113722
370,Mahagadhimai Nagarpalika,BARA,2,"Mahagadhimai Nagarpalika, BARA",85.0578245213977,26.982510404335326
371,Nijgadh Nagarpalika,BARA,2,"Nijgadh Nagarpalika, BARA",85.13738520120802,27.23433573636677
372,Pacharauta Nagarpalika,BARA,2,"Pacharauta Nagarpalika, BARA",85.07525326110219,26.895962981961937
373,Parwanipur Gaunpalika,BARA,2,"Parwanipur Gaunpalika, BARA",84.931223802656,27.056377058731005
374,Pheta Gaunpalika,BARA,2,"Pheta Gaunpalika, BARA",84.94337373142996,27.000265400218453
375,Prasauni Gaunpalika,BARA,2,"Prasauni Gaunpalika, BARA",84.95287987352435,27.047362163475825
376,Simraungadh Nagarpalika,BARA,2,"Simraungadh Nagarpalika, BARA",85.13553367539704,26.89608856469863
377,Suwarna Gaunpalika,BARA,2,"Suwarna Gaunpalika, BARA",85.03935265969615,26.9185003327787
378,Parsa Wildlife Reserve,BARA,2,"Parsa Wildlife Reserve, BARA",84.96946558737724,27.27503931742481
379,Bahudaramai Nagarpalika,PARSA,2,"Bahudaramai Nagarpalika, PARSA",84.82733941192697,27.08292512978389
380,Bindabasini Gaunpalika,PARSA,2,"Bindabasini Gaunpalika, PARSA",84.79419459257204,27.035710720719152
381,Birgunj Mahanagarpalika,PARSA,2,"Birgunj Mahanagarpalika, PARSA",84.89386668950819,27.082747394033525
382,Chhipaharmai Gaunpalika,PARSA,2,"Chhipaharmai Gaunpalika, PARSA",84.67141233158156,27.058674750949947
383,Dhobini Gaunpalika,PARSA,2,"Dhobini Gaunpalika, PARSA",84.69399535309589,27.097077973170883
384,Jagarnathpur Gaunpalika,PARSA,2,"Jagarnathpur Gaunpalika, PARSA",84.72304465930645,27.139347975873264
385,Jirabhawani Gaunpalika,PARSA,2,"Jirabhawani Gaunpalika, PARSA",84.73228463866613,27.200251254196154
386,Kalikamai Gaunpalika,PARSA,2,"Kalikamai Gaunpalika, PARSA",84.72645619162124,27.066016729319326
387,Pakahamainpur Gaunpalika,PARSA,2,"Pakahamainpur Gaunpalika, PARSA",84.73551004766877,27.028195243464378
388,Parsagadhi Nagarpalika,PARSA,2,"Parsagadhi Nagarpalika, PARSA",84.88952411259058,27.171023471755586
389,Paterwasugauli Gaunpalika,PARSA,2,"Paterwasugauli Gaunpalika, PARSA",84.79020994345778,27.193243100461522
390,Pokhariya Nagarpalika,PARSA,2,"Pokhariya Nagarpalika, PARSA",84.76368675152071,27.077169047584245
391,SakhuwaPrasauni Gaunpalika,PARSA,2,"SakhuwaPrasauni Gaunpalika, PARSA",84.82559021219681,27.16672845761561
392,Thori Gaunpalika,PARSA,2,"Thori Gaunpalika, PARSA",84.63474713479381,27.320808060983993
393,Bharatpur Mahanagarpalika,CHITAWAN,3,"Bharatpur Mahanagarpalika, CHITAWAN",84.3841465773333,27.652904896693745
394,Ichchhyakamana Gaunpalika,CHITAWAN,3,"Ichchhyakamana Gaunpalika, CHITAWAN",84.59124784533081,27.802665197926878
395,Kalika Nagarpalika,CHITAWAN,3,"Kalika Nagarpalika, CHITAWAN",84.58622193016078,27.709773639454045
396,Khairahani Nagarpalika,CHITAWAN,3,"Khairahani Nagarpalika, CHITAWAN",84.57118542204323,27.605758238612978
397,Madi Nagarpalika,CHITAWAN,3,"Madi Nagarpalika, CHITAWAN",84.3711822451508,27.420634592027994
398,Rapti Nagarpalika,CHITAWAN,3,"Rapti Nagarpalika, CHITAWAN",84.68966018037258,27.649406327430807
399,Ratnanagar Nagarpalika,CHITAWAN,3,"Ratnanagar Nagarpalika, CHITAWAN",84.51393887408351,27.619152424654324
400,Chitawan National Park,CHITAWAN,3,"Chitawan National Park, CHITAWAN",84.34118700632357,27.51154942267675
401,Aarughat Gaunpalika,GORKHA,4,"Aarughat Gaunpalika, GORKHA",84.85017647060909,28.120673966401853
402,Ajirkot Gaunpalika,GORKHA,4,"Ajirkot Gaunpalika, GORKHA",84.68152675955454,28.237075992872924
403,Bhimsen Thapa Gaunpalika,GORKHA,4,"Bhimsen Thapa Gaunpalika, GORKHA",84.74040105097366,28.011745656164194
404,Chum Nubri Gaunpalika,GORKHA,4,"Chum Nubri Gaunpalika, GORKHA",84.83063861391018,28.533755160219442
405,Dharche Gaunpalika,GORKHA,4,"Dharche Gaunpalika, GORKHA",84.9250202263616,28.304694470076672
406,Gandaki Gaunpalika,GORKHA,4,"Gandaki Gaunpalika, GORKHA",84.70753666743049,27.859321625552177
407,Gorkha Nagarpalika,GORKHA,4,"Gorkha Nagarpalika, GORKHA",84.59934835760855,27.982933394494864
408,Palungtar Nagarpalika,GORKHA,4,"Palungtar Nagarpalika, GORKHA",84.50616792099592,28.01032753246509
409,Sahid Lakhan Gaunpalika,GORKHA,4,"Sahid Lakhan Gaunpalika, GORKHA",84.63339570419791,27.92621498964548
410,Siranchok Gaunpalika,GORKHA,4,"Siranchok Gaunpalika, GORKHA",84.60115892184258,28.091256458354813
411,Barpak Sulikot Gaunpalika,GORKHA,4,"Barpak Sulikot Gaunpalika, GORKHA",84.73354606016701,28.16262039731899
412,Besishahar Nagarpalika,LAMJUNG,4,"Besishahar Nagarpalika, LAMJUNG",84.38038913642157,28.217454073634357
413,Dordi Gaunpalika,LAMJUNG,4,"Dordi Gaunpalika, LAMJUNG",84.54612060056309,28.292737980879444
414,Dudhpokhari Gaunpalika,LAMJUNG,4,"Dudhpokhari Gaunpalika, LAMJUNG",84.58626952452144,28.216092158019418
415,Kwholasothar Gaunpalika,LAMJUNG,4,"Kwholasothar Gaunpalika, LAMJUNG",84.25147355057732,28.291558159346256
416,MadhyaNepal Nagarpalika,LAMJUNG,4,"MadhyaNepal Nagarpalika, LAMJUNG",84.26195116516838,28.149598479160076
417,Marsyangdi Gaunpalika,LAMJUNG,4,"Marsyangdi Gaunpalika, LAMJUNG",84.4162557903253,28.384473773024297
418,Rainas Nagarpalika,LAMJUNG,4,"Rainas Nagarpalika, LAMJUNG",84.49563047103992,28.116657296419945
419,Sundarbazar Nagarpalika,LAMJUNG,4,"Sundarbazar Nagarpalika, LAMJUNG",84.36945041471532,28.153165080415533
420,Anbukhaireni Gaunpalika,TANAHU,4,"Anbukhaireni Gaunpalika, TANAHU",84.48573889725745,27.875561905883888
421,Bandipur Gaunpalika,TANAHU,4,"Bandipur Gaunpalika, TANAHU",84.39401332276805,27.918930174123407
422,Bhanu Nagarpalika,TANAHU,4,"Bhanu Nagarpalika, TANAHU",84.39681295795364,28.054085572304015
423,Bhimad Nagarpalika,TANAHU,4,"Bhimad Nagarpalika, TANAHU",84.04291456073544,27.965577814229338
424,Byas Nagarpalika,TANAHU,4,"Byas Nagarpalika, TANAHU",84.28534820527277,28.01323544553309
425,Devghat Gaunpalika,TANAHU,4,"Devghat Gaunpalika, TANAHU",84.37214872617562,27.810431676336115
426,Ghiring Gaunpalika,TANAHU,4,"Ghiring Gaunpalika, TANAHU",84.05206569869182,27.893198124524883
427,Myagde Gaunpalika,TANAHU,4,"Myagde Gaunpalika, TANAHU",84.16593856378427,28.000448003529918
428,Rhishing Gaunpalika,TANAHU,4,"Rhishing Gaunpalika, TANAHU",84.21990368841536,27.89818193901011
429,Shuklagandaki Nagarpalika,TANAHU,4,"Shuklagandaki Nagarpalika, TANAHU",84.06665512757893,28.064842221719804
430,Aandhikhola Gaunpalika,SYANGJA,4,"Aandhikhola Gaunpalika, SYANGJA",83.79796196305092,28.1565798081251
431,Arjunchaupari Gaunpalika,SYANGJA,4,"Arjunchaupari Gaunpalika, SYANGJA",83.75730580108383,28.102318758898292
432,Bhirkot Nagarpalika,SYANGJA,4,"Bhirkot Nagarpalika, SYANGJA",83.7725732315932,28.039763841635324
433,Biruwa Gaunpalika,SYANGJA,4,"Biruwa Gaunpalika, SYANGJA",83.89736468750485,28.00955596503058
434,Chapakot Nagarpalika,SYANGJA,4,"Chapakot Nagarpalika, SYANGJA",83.85662481955053,27.912301319140695
435,Galyang Nagarpalika,SYANGJA,4,"Galyang Nagarpalika, SYANGJA",83.67226401036353,27.95491650383546
436,Harinas Gaunpalika,SYANGJA,4,"Harinas Gaunpalika, SYANGJA",83.95779671076478,27.98333029486302
437,Kaligandagi Gaunpalika,SYANGJA,4,"Kaligandagi Gaunpalika, SYANGJA",83.53425335512543,27.95077390518324
438,Phedikhola Gaunpalika,SYANGJA,4,"Phedikhola Gaunpalika, SYANGJA",83.86806302183446,28.171954032176156
439,Putalibazar Nagarpalika,SYANGJA,4,"Putalibazar Nagarpalika, SYANGJA",83.89295219002048,28.098462029131202
440,Waling Nagarpalika,SYANGJA,4,"Waling Nagarpalika, SYANGJA",83.76688708068438,27.984367175257788
441,Annapurna Gaunpalika,KASKI,4,"Annapurna Gaunpalika, KASKI",83.8252592145899,28.442434212921597
442,Machhapuchchhre Gaunpalika,KASKI,4,"Machhapuchchhre Gaunpalika, KASKI",83.96112181891334,28.436111682173397
443,Madi Gaunpalika,KASKI,4,"Madi Gaunpalika, KASKI",84.1372318863493,28.36607215756164
444,Pokhara Lekhnath Mahanagarpalika,KASKI,4,"Pokhara Lekhnath Mahanagarpalika, KASKI",83.98934377476418,28.210516049678688
445,Rupa Gaunpalika,KASKI,4,"Rupa Gaunpalika, KASKI",84.17315806727397,28.142385237250984
446,Chame Gaunpalika,MANANG,4,"Chame Gaunpalika, MANANG",84.25330359913998,28.517849242907534
447,Narpa Bhumi Gaunpalika,MANANG,4,"Narpa Bhumi Gaunpalika, MANANG",84.23058194100066,28.76946470054551
448,Nasho Gaunpalika,MANANG,4,"Nasho Gaunpalika, MANANG",84.41231333451823,28.589123245425906
449,Manang Nshiang Gaunpalika,MANANG,4,"Manang Nshiang Gaunpalika, MANANG",84.02222379170311,28.6595130344285
450,Waragun Muktikshetra Gaunpalika,MUSTANG,4,"Waragun Muktikshetra Gaunpalika, MUSTANG",83.74894252255055,28.8897494734219
451,Lo-Ghekar Damodarkunda Gaunpalika,MUSTANG,4,"Lo-Ghekar Damodarkunda Gaunpalika, MUSTANG",83.94338519565139,29.03508116627915
452,Gharapjhong Gaunpalika,MUSTANG,4,"Gharapjhong Gaunpalika, MUSTANG",83.7261945114854,28.761662515997912
453,Lomanthang Gaunpalika,MUSTANG,4,"Lomanthang Gaunpalika, MUSTANG",83.98601792319445,29.208326623052756
454,Thasang Gaunpalika,MUSTANG,4,"Thasang Gaunpalika, MUSTANG",83.61472160158908,28.681011561186835
455,Annapurna Gaunpalika,MYAGDI,4,"Annapurna Gaunpalika, MYAGDI",83.70910792652181,28.52984764119079
456,Beni Nagarpalika,MYAGDI,4,"Beni Nagarpalika, MYAGDI",83.53367982085783,28.352806162932335
457,Dhaulagiri Gaunpalika,MYAGDI,4,"Dhaulagiri Gaunpalika, MYAGDI",83.34858840272585,28.623411213369
458,Malika Gaunpalika,MYAGDI,4,"Malika Gaunpalika, MYAGDI",83.35342150052486,28.419401029300968
459,Mangala Gaunpalika,MYAGDI,4,"Mangala Gaunpalika, MYAGDI",83.4508072408956,28.378335361808197
460,Raghuganga Gaunpalika,MYAGDI,4,"Raghuganga Gaunpalika, MYAGDI",83.51773981150676,28.532936172759687
461,Dhorpatan Hunting Reserve,MYAGDI,4,"Dhorpatan Hunting Reserve, MYAGDI",83.1572831838725,28.61339307259453
462,Bihadi Gaunpalika,PARBAT,4,"Bihadi Gaunpalika, PARBAT",83.59944586057802,28.056872102718998
463,Jaljala Gaunpalika,PARBAT,4,"Jaljala Gaunpalika, PARBAT",83.61758562599248,28.3314132635282
464,Kushma Nagarpalika,PARBAT,4,"Kushma Nagarpalika, PARBAT",83.70427517631764,28.231637104449927
465,Mahashila Gaunpalika,PARBAT,4,"Mahashila Gaunpalika, PARBAT",83.6693490951288,28.094484424240417
466,Modi Gaunpalika,PARBAT,4,"Modi Gaunpalika, PARBAT",83.72506688668199,28.299731777259943
467,Painyu Gaunpalika,PARBAT,4,"Painyu Gaunpalika, PARBAT",83.66591478922686,28.044527124950015
468,Phalebas Nagarpalika,PARBAT,4,"Phalebas Nagarpalika, PARBAT",83.686166765306,28.156156718344274
469,Badigad Gaunpalika,BAGLUNG,4,"Badigad Gaunpalika, BAGLUNG",83.24131413576636,28.271476228622646
470,Baglung Nagarpalika,BAGLUNG,4,"Baglung Nagarpalika, BAGLUNG",83.59602774097034,28.2463480181456
471,Bareng Gaunpalika,BAGLUNG,4,"Bareng Gaunpalika, BAGLUNG",83.4717498567687,28.150263656499686
472,Dhorpatan Nagarpalika,BAGLUNG,4,"Dhorpatan Nagarpalika, BAGLUNG",83.14016954179738,28.39434152345927
473,Galkot Nagarpalika,BAGLUNG,4,"Galkot Nagarpalika, BAGLUNG",83.38978410355097,28.2330469209839
474,Jaimini Nagarpalika,BAGLUNG,4,"Jaimini Nagarpalika, BAGLUNG",83.58124149439233,28.1576373119961
475,Kanthekhola Gaunpalika,BAGLUNG,4,"Kanthekhola Gaunpalika, BAGLUNG",83.51216846994392,28.26193054333375
476,Nisikhola Gaunpalika,BAGLUNG,4,"Nisikhola Gaunpalika, BAGLUNG",83.02058476692018,28.382688210423307
477,Taman Khola Gaunpalika,BAGLUNG,4,"Taman Khola Gaunpalika, BAGLUNG",83.22315146575693,28.436898738705136
478,Tara Khola Gaunpalika,BAGLUNG,4,"Tara Khola Gaunpalika, BAGLUNG",83.40177828770878,28.31192283044157
479,Dhorpatan Hunting Reserve,BAGLUNG,4,"Dhorpatan Hunting Reserve, BAGLUNG",83.02328127386475,28.53891809622116
480,Chandrakot Gaunpalika,GULMI,5,"Chandrakot Gaunpalika, GULMI",83.40574166294107,28.10821153270567
481,Chatrakot Gaunpalika,GULMI,5,"Chatrakot Gaunpalika, GULMI",83.3471950740097,27.984102972298327
482,Dhurkot Gaunpalika,GULMI,5,"Dhurkot Gaunpalika, GULMI",83.14308262417059,28.11162539363842
483,Gulmidarbar Gaunpalika,GULMI,5,"Gulmidarbar Gaunpalika, GULMI",83.3094069521465,28.034672330963307
484,Isma Gaunpalika,GULMI,5,"Isma Gaunpalika, GULMI",83.21193159076813,28.15700460902288
485,Kaligandaki Gaunpalika,GULMI,5,"Kaligandaki Gaunpalika, GULMI",83.54233940807609,28.05136773217582
486,Madane Gaunpalika,GULMI,5,"Madane Gaunpalika, GULMI",83.07301488251933,28.17607827811013
487,Malika Gaunpalika,GULMI,5,"Malika Gaunpalika, GULMI",83.14658853399573,28.21570225643002
488,Musikot Nagarpalika,GULMI,5,"Musikot Nagarpalika, GULMI",83.29174995507864,28.167044667761928
489,Resunga Nagarpalika,GULMI,5,"Resunga Nagarpalika, GULMI",83.2583170206375,28.06779275997086
490,Ruru Gaunpalika,GULMI,5,"Ruru Gaunpalika, GULMI",83.42153557025048,27.980681895246455
491,Satyawati Gaunpalika,GULMI,5,"Satyawati Gaunpalika, GULMI",83.46822895942104,28.031461125219273
492,Bagnaskali Gaunpalika,PALPA,5,"Bagnaskali Gaunpalika, PALPA",83.59117189572964,27.886342457298486
493,Mathagadhi Gaunpalika,PALPA,5,"Mathagadhi Gaunpalika, PALPA",83.65638081091835,27.75670372699606
494,Nisdi Gaunpalika,PALPA,5,"Nisdi Gaunpalika, PALPA",83.89915861927145,27.774655830993314
495,Purbakhola Gaunpalika,PALPA,5,"Purbakhola Gaunpalika, PALPA",83.77372132920812,27.814127503797643
496,Rainadevi Chhahara Gaunpalika,PALPA,5,"Rainadevi Chhahara Gaunpalika, PALPA",83.33230197617189,27.851515843584863
497,Rambha Gaunpalika,PALPA,5,"Rambha Gaunpalika, PALPA",83.69258572723153,27.869106710557155
498,Rampur Nagarpalika,PALPA,5,"Rampur Nagarpalika, PALPA",83.883580609915,27.853791898927938
499,Ribdikot Gaunpalika,PALPA,5,"Ribdikot Gaunpalika, PALPA",83.42985035878678,27.857593276221365
500,Tansen Nagarpalika,PALPA,5,"Tansen Nagarpalika, PALPA",83.52043791772523,27.86664680150344
501,Tinau Gaunpalika,PALPA,5,"Tinau Gaunpalika, PALPA",83.47299150174884,27.76891344266939
502,Bardaghat Nagarpalika,NAWALPARASI_W,5,"Bardaghat Nagarpalika, NAWALPARASI_W",83.79579566160466,27.556498578817244
503,Palhi Nandan Gaunpalika,NAWALPARASI_W,5,"Palhi Nandan Gaunpalika, NAWALPARASI_W",83.67109355040417,27.465040103792887
504,Pratappur Gaunpalika,NAWALPARASI_W,5,"Pratappur Gaunpalika, NAWALPARASI_W",83.79069839640543,27.437712828580985
505,Ramgram Nagarpalika,NAWALPARASI_W,5,"Ramgram Nagarpalika, NAWALPARASI_W",83.64899333572149,27.526875661958826
506,Sarawal Gaunpalika,NAWALPARASI_W,5,"Sarawal Gaunpalika, NAWALPARASI_W",83.7312283409855,27.506068700124594
507,Sunwal Nagarpalika,NAWALPARASI_W,5,"Sunwal Nagarpalika, NAWALPARASI_W",83.66561857432794,27.61797339421887
508,Susta Gaunpalika,NAWALPARASI_W,5,"Susta Gaunpalika, NAWALPARASI_W",83.85717689229242,27.422751371375195
509,Butwal Upamahanagarpalika,RUPANDEHI,5,"Butwal Upamahanagarpalika, RUPANDEHI",83.43310801832227,27.689111302102333
510,Devdaha Nagarpalika,RUPANDEHI,5,"Devdaha Nagarpalika, RUPANDEHI",83.55969557620581,27.65123425289579
511,Gaidahawa Gaunpalika,RUPANDEHI,5,"Gaidahawa Gaunpalika, RUPANDEHI",83.27563771115122,27.57994118932996
512,Kanchan Gaunpalika,RUPANDEHI,5,"Kanchan Gaunpalika, RUPANDEHI",83.26055986230091,27.642772291273655
513,Kotahimai Gaunpalika,RUPANDEHI,5,"Kotahimai Gaunpalika, RUPANDEHI",83.3503730934987,27.44712407374189
514,Lumbini Sanskritik Nagarpalika,RUPANDEHI,5,"Lumbini Sanskritik Nagarpalika, RUPANDEHI",83.26661533598168,27.472870146255467
515,Marchawari Gaunpalika,RUPANDEHI,5,"Marchawari Gaunpalika, RUPANDEHI",83.35124155820857,27.37340798518545
516,Mayadevi Gaunpalika,RUPANDEHI,5,"Mayadevi Gaunpalika, RUPANDEHI",83.36248008907562,27.514932086227223
517,Omsatiya Gaunpalika,RUPANDEHI,5,"Omsatiya Gaunpalika, RUPANDEHI",83.51027462774601,27.53463058867932
518,Rohini Gaunpalika,RUPANDEHI,5,"Rohini Gaunpalika, RUPANDEHI",83.54801534010927,27.496215848261436
519,Sainamaina Nagarpalika,RUPANDEHI,5,"Sainamaina Nagarpalika, RUPANDEHI",83.30568662726598,27.711919496065324
520,Sammarimai Gaunpalika,RUPANDEHI,5,"Sammarimai Gaunpalika, RUPANDEHI",83.30437337096325,27.389671332358606
521,Siddharthanagar Nagarpalika,RUPANDEHI,5,"Siddharthanagar Nagarpalika, RUPANDEHI",83.44238140988648,27.501347773398212
522,Siyari Gaunpalika,RUPANDEHI,5,"Siyari Gaunpalika, RUPANDEHI",83.39602388144654,27.566937043587668
523,Sudhdhodhan Gaunpalika,RUPANDEHI,5,"Sudhdhodhan Gaunpalika, RUPANDEHI",83.3687685894276,27.62237619566259
524,Tillotama Nagarpalika,RUPANDEHI,5,"Tillotama Nagarpalika, RUPANDEHI",83.48636973552046,27.60837197612229
525,Lumbini Sanskritik Development Area,RUPANDEHI,5,"Lumbini Sanskritik Development Area, RUPANDEHI",83.27615818573103,27.484278315853086
526,Banganga Nagarpalika,KAPILBASTU,5,"Banganga Nagarpalika, KAPILBASTU",83.15771517614529,27.685052979718634
527,Bijayanagar Gaunpalika,KAPILBASTU,5,"Bijayanagar Gaunpalika, KAPILBASTU",82.76536920089917,27.655696564031956
528,Buddhabhumi Nagarpalika,KAPILBASTU,5,"Buddhabhumi Nagarpalika, KAPILBASTU",82.99772773894915,27.685727454169598
529,Kapilbastu Nagarpalika,KAPILBASTU,5,"Kapilbastu Nagarpalika, KAPILBASTU",83.07232831046778,27.56399109816546
530,Krishnanagar Nagarpalika,KAPILBASTU,5,"Krishnanagar Nagarpalika, KAPILBASTU",82.81551770289202,27.529731801212392
531,Maharajgunj Nagarpalika,KAPILBASTU,5,"Maharajgunj Nagarpalika, KAPILBASTU",82.93588362433286,27.54401211927797
532,Mayadevi Gaunpalika,KAPILBASTU,5,"Mayadevi Gaunpalika, KAPILBASTU",83.13083936800706,27.509088270182446
533,Shivaraj Nagarpalika,KAPILBASTU,5,"Shivaraj Nagarpalika, KAPILBASTU",82.85250621527531,27.693678497047408
534,Suddhodhan Gaunpalika,KAPILBASTU,5,"Suddhodhan Gaunpalika, KAPILBASTU",83.1932395488759,27.515386858940005
535,Yashodhara Gaunpalika,KAPILBASTU,5,"Yashodhara Gaunpalika, KAPILBASTU",83.02630972915512,27.482624803024287
536,Bhumekasthan Nagarpalika,ARGHAKHANCHI,5,"Bhumekasthan Nagarpalika, ARGHAKHANCHI",83.03664261522806,27.986625722196624
537,Chhatradev Gaunpalika,ARGHAKHANCHI,5,"Chhatradev Gaunpalika, ARGHAKHANCHI",83.22558135409899,27.995286017340888
538,Malarani Gaunpalika,ARGHAKHANCHI,5,"Malarani Gaunpalika, ARGHAKHANCHI",83.0911825427615,28.06509503484424
539,Panini Gaunpalika,ARGHAKHANCHI,5,"Panini Gaunpalika, ARGHAKHANCHI",83.24466342527504,27.8871541140037
540,Sandhikharka Nagarpalika,ARGHAKHANCHI,5,"Sandhikharka Nagarpalika, ARGHAKHANCHI",83.13776985427114,27.973809726011858
541,Sitganga Nagarpalika,ARGHAKHANCHI,5,"Sitganga Nagarpalika, ARGHAKHANCHI",83.01401634611314,27.841177747171734
542,Ayirabati Gaunpalika,PYUTHAN,5,"Ayirabati Gaunpalika, PYUTHAN",82.92232717884154,27.992108491284387
543,Gaumukhi Gaunpalika,PYUTHAN,5,"Gaumukhi Gaunpalika, PYUTHAN",83.01989264909567,28.254048311039437
544,Jhimruk Gaunpalika,PYUTHAN,5,"Jhimruk Gaunpalika, PYUTHAN",82.98234064453858,28.144402976540857
545,Mallarani Gaunpalika,PYUTHAN,5,"Mallarani Gaunpalika, PYUTHAN",82.91173022671968,28.071974702204752
546,Mandavi Gaunpalika,PYUTHAN,5,"Mandavi Gaunpalika, PYUTHAN",82.75933657159251,28.044788388225523
547,Naubahini Gaunpalika,PYUTHAN,5,"Naubahini Gaunpalika, PYUTHAN",82.9162240682231,28.252561031801438
548,Pyuthan Nagarpalika,PYUTHAN,5,"Pyuthan Nagarpalika, PYUTHAN",82.85113015238173,28.125594990753033
549,Sarumarani Gaunpalika,PYUTHAN,5,"Sarumarani Gaunpalika, PYUTHAN",82.8294866977643,27.94807814793799
550,Sworgadwary Nagarpalika,PYUTHAN,5,"Sworgadwary Nagarpalika, PYUTHAN",82.69405436079371,28.13405641916986
551,Pariwartan Gaunpalika,ROLPA,5,"Pariwartan Gaunpalika, ROLPA",82.54995622662233,28.480856362916757
552,Lungri Gaunpalika,ROLPA,5,"Lungri Gaunpalika, ROLPA",82.81682129428201,28.27340037822407
553,Madi Gaunpalika,ROLPA,5,"Madi Gaunpalika, ROLPA",82.4981507429854,28.39267316473278
554,Runtigadi Gaunpalika,ROLPA,5,"Runtigadi Gaunpalika, ROLPA",82.51992337019483,28.187103338383224
555,Sukidaha Gaunpalika,ROLPA,5,"Sukidaha Gaunpalika, ROLPA",82.4212056797805,28.44514715120497
556,Sunchhahari Gaunpalika,ROLPA,5,"Sunchhahari Gaunpalika, ROLPA",82.82395167390416,28.37595186246292
557,Suwarnabati Gaunpalika,ROLPA,5,"Suwarnabati Gaunpalika, ROLPA",82.70702144018581,28.24741651820996
558,Thawang Gaunpalika,ROLPA,5,"Thawang Gaunpalika, ROLPA",82.74180048311253,28.463725350107183
559,Tribeni Gaunpalika,ROLPA,5,"Tribeni Gaunpalika, ROLPA",82.46665594209757,28.296516739983694
560,Aathbiskot Nagarpalika,RUKUM_W,6,"Aathbiskot Nagarpalika, RUKUM_W",82.51382495991197,28.842564359916388
561,Banfikot Gaunpalika,RUKUM_W,6,"Banfikot Gaunpalika, RUKUM_W",82.50283669965407,28.704116443605145
562,Chaurjahari Nagarpalika,RUKUM_W,6,"Chaurjahari Nagarpalika, RUKUM_W",82.2623068069429,28.635827967739903
563,Sani Bheri Gaunpalika,RUKUM_W,6,"Sani Bheri Gaunpalika, RUKUM_W",82.3423894475202,28.67667020055738
564,Tribeni Gaunpalika,RUKUM_W,6,"Tribeni Gaunpalika, RUKUM_W",82.42017398667944,28.564590930124997
565,Bagchaur Nagarpalika,SALYAN,6,"Bagchaur Nagarpalika, SALYAN",82.32716595552037,28.475660467872657
566,Bangad Kupinde Nagarpalika,SALYAN,6,"Bangad Kupinde Nagarpalika, SALYAN",82.05380977447255,28.489467041698994
567,Chhatreshwori Gaunpalika,SALYAN,6,"Chhatreshwori Gaunpalika, SALYAN",82.29126452659233,28.355544775330117
568,Darma Gaunpalika,SALYAN,6,"Darma Gaunpalika, SALYAN",82.3117934731325,28.553140109879877
569,Siddha Kumakha Gaunpalika,SALYAN,6,"Siddha Kumakha Gaunpalika, SALYAN",82.17933504592315,28.467086177117523
570,Kalimati Gaunpalika,SALYAN,6,"Kalimati Gaunpalika, SALYAN",81.94944383796067,28.291399960630162
571,Kapurkot Gaunpalika,SALYAN,6,"Kapurkot Gaunpalika, SALYAN",82.35997443650895,28.253556799056987
572,Kumakha Gaunpalika,SALYAN,6,"Kumakha Gaunpalika, SALYAN",82.1946190752493,28.55889083855039
573,Sharada Nagarpalika,SALYAN,6,"Sharada Nagarpalika, SALYAN",82.16229156664919,28.3817725940189
574,Tribeni Gaunpalika,SALYAN,6,"Tribeni Gaunpalika, SALYAN",82.23118227727619,28.281814013640748
575,Babai Gaunpalika,DANG,5,"Babai Gaunpalika, DANG",82.08505127234878,28.17320833316059
576,Banglachuli Gaunpalika,DANG,5,"Banglachuli Gaunpalika, DANG",82.66046100709282,27.989760480496138
577,Dangisharan Gaunpalika,DANG,5,"Dangisharan Gaunpalika, DANG",82.17528175570492,28.08483825111618
578,Gadhawa Gaunpalika,DANG,5,"Gadhawa Gaunpalika, DANG",82.60512060011838,27.76724423264544
579,Ghorahi Upamahanagarpalika,DANG,5,"Ghorahi Upamahanagarpalika, DANG",82.47694378177647,28.023339790454912
580,Lamahi Nagarpalika,DANG,5,"Lamahi Nagarpalika, DANG",82.41676475513636,27.913289218991657
581,Rajpur Gaunpalika,DANG,5,"Rajpur Gaunpalika, DANG",82.31088740612348,27.838762640961285
582,Rapti Gaunpalika,DANG,5,"Rapti Gaunpalika, DANG",82.69947824084848,27.86759857383516
583,Shantinagar Gaunpalika,DANG,5,"Shantinagar Gaunpalika, DANG",82.19148234766324,28.183007867715396
584,Tulsipur Upamahanagarpalika,DANG,5,"Tulsipur Upamahanagarpalika, DANG",82.30641317564755,28.111611462347742
585,Baijanath Gaunpalika,BANKE,5,"Baijanath Gaunpalika, BANKE",81.63863193385558,28.238709255732516
586,Duduwa Gaunpalika,BANKE,5,"Duduwa Gaunpalika, BANKE",81.70467030780141,28.03063819687916
587,Janki Gaunpalika,BANKE,5,"Janki Gaunpalika, BANKE",81.60289218506274,28.090803903614972
588,Khajura Gaunpalika,BANKE,5,"Khajura Gaunpalika, BANKE",81.55758343192893,28.126608207253106
589,Kohalpur Nagarpalika,BANKE,5,"Kohalpur Nagarpalika, BANKE",81.71918844146711,28.215860962193027
590,Narainapur Gaunpalika,BANKE,5,"Narainapur Gaunpalika, BANKE",81.86168825183726,27.92794723378752
591,Nepalgunj Upamahanagarpalika,BANKE,5,"Nepalgunj Upamahanagarpalika, BANKE",81.64600785714939,28.060412185406012
592,Rapti Sonari Gaunpalika,BANKE,5,"Rapti Sonari Gaunpalika, BANKE",81.9230921559149,28.073119402631455
593,Badhaiyatal Gaunpalika,BARDIYA,5,"Badhaiyatal Gaunpalika, BARDIYA",81.47906862799647,28.171166107408748
594,Bansagadhi Nagarpalika,BARDIYA,5,"Bansagadhi Nagarpalika, BARDIYA",81.5635154317165,28.277929818016858
595,Barbardiya Nagarpalika,BARDIYA,5,"Barbardiya Nagarpalika, BARDIYA",81.38242305865042,28.32305545571947
596,Geruwa Gaunpalika,BARDIYA,5,"Geruwa Gaunpalika, BARDIYA",81.20066714531481,28.50161202751455
597,Gulariya Nagarpalika,BARDIYA,5,"Gulariya Nagarpalika, BARDIYA",81.34569465153463,28.210927128891072
598,Madhuwan Nagarpalika,BARDIYA,5,"Madhuwan Nagarpalika, BARDIYA",81.2587112866489,28.340282637882584
599,Rajapur Nagarpalika,BARDIYA,5,"Rajapur Nagarpalika, BARDIYA",81.13758326361692,28.421326829029283
600,Thakurbaba Nagarpalika,BARDIYA,5,"Thakurbaba Nagarpalika, BARDIYA",81.29606266307616,28.442349431316305
601,Bardiya National Park,BARDIYA,5,"Bardiya National Park, BARDIYA",81.45439335398939,28.45690907769687
602,Barahtal Gaunpalika,SURKHET,6,"Barahtal Gaunpalika, SURKHET",81.4740148867349,28.662415887629898
603,Bheriganga Nagarpalika,SURKHET,6,"Bheriganga Nagarpalika, SURKHET",81.69194677924195,28.45761142532734
604,Birendranagar Nagarpalika,SURKHET,6,"Birendranagar Nagarpalika, SURKHET",81.6345246975974,28.60232617827815
605,Chaukune Gaunpalika,SURKHET,6,"Chaukune Gaunpalika, SURKHET",81.19264894734839,28.87552783198807
606,Chingad Gaunpalika,SURKHET,6,"Chingad Gaunpalika, SURKHET",81.83161998226458,28.62071372076502
607,Gurbhakot Nagarpalika,SURKHET,6,"Gurbhakot Nagarpalika, SURKHET",81.89185736112735,28.429024780785586
608,Lekbeshi Nagarpalika,SURKHET,6,"Lekbeshi Nagarpalika, SURKHET",81.75157955159659,28.53992471479003
609,Panchpuri Nagarpalika,SURKHET,6,"Panchpuri Nagarpalika, SURKHET",81.38277405822629,28.789700667341116
610,Simta Gaunpalika,SURKHET,6,"Simta Gaunpalika, SURKHET",81.95330484213868,28.552252498272807
611,Aathabis Nagarpalika,DAILEKH,6,"Aathabis Nagarpalika, DAILEKH",81.49079216052999,29.02360175227374
612,Bhagawatimai Gaunpalika,DAILEKH,6,"Bhagawatimai Gaunpalika, DAILEKH",81.83052043580103,28.792775798135086
613,Bhairabi Gaunpalika,DAILEKH,6,"Bhairabi Gaunpalika, DAILEKH",81.642865212547,28.952478709771405
614,Chamunda Bindrasaini Nagarpalika,DAILEKH,6,"Chamunda Bindrasaini Nagarpalika, DAILEKH",81.5586327393151,28.934717331939964
615,Dullu Nagarpalika,DAILEKH,6,"Dullu Nagarpalika, DAILEKH",81.60660024348552,28.83181703584302
616,Dungeshwor Gaunpalika,DAILEKH,6,"Dungeshwor Gaunpalika, DAILEKH",81.71925600323975,28.74857074813088
617,Gurans Gaunpalika,DAILEKH,6,"Gurans Gaunpalika, DAILEKH",81.68336139878676,28.70635088355691
618,Mahabu Gaunpalika,DAILEKH,6,"Mahabu Gaunpalika, DAILEKH",81.69338309159322,28.948345263186344
619,Narayan Nagarpalika,DAILEKH,6,"Narayan Nagarpalika, DAILEKH",81.73906844566393,28.8619374618963
620,Naumule Gaunpalika,DAILEKH,6,"Naumule Gaunpalika, DAILEKH",81.82282203198669,28.931216482966978
621,Thantikandh Gaunpalika,DAILEKH,6,"Thantikandh Gaunpalika, DAILEKH",81.55090785975626,29.00208420042302
622,Barekot Gaunpalika,JAJARKOT,6,"Barekot Gaunpalika, JAJARKOT",82.28484327050602,28.99470682584123
623,Bheri Nagarpalika,JAJARKOT,6,"Bheri Nagarpalika, JAJARKOT",82.16303703459997,28.697428393169233
624,Chhedagad Nagarpalika,JAJARKOT,6,"Chhedagad Nagarpalika, JAJARKOT",82.02663268080809,28.748437398701526
625,Junichande Gaunpalika,JAJARKOT,6,"Junichande Gaunpalika, JAJARKOT",81.97917367620634,28.896325733615093
626,Kuse Gaunpalika,JAJARKOT,6,"Kuse Gaunpalika, JAJARKOT",82.13684231525916,28.87816505909373
627,Shiwalaya Gaunpalika,JAJARKOT,6,"Shiwalaya Gaunpalika, JAJARKOT",81.92471934821913,28.68548180861226
628,Nalagad Nagarpalika,JAJARKOT,6,"Nalagad Nagarpalika, JAJARKOT",82.37412000245664,28.8786725562395
629,Chharka Tangsong Gaunpalika,DOLPA,6,"Chharka Tangsong Gaunpalika, DOLPA",83.36755822961739,28.97924163980813
630,Dolpo Buddha Gaunpalika,DOLPA,6,"Dolpo Buddha Gaunpalika, DOLPA",83.2651429497121,29.274144924102462
631,Jagadulla Gaunpalika,DOLPA,6,"Jagadulla Gaunpalika, DOLPA",82.64656422214473,29.24042004575084
632,Kaike Gaunpalika,DOLPA,6,"Kaike Gaunpalika, DOLPA",83.04709511971693,28.90512248079886
633,Mudkechula Gaunpalika,DOLPA,6,"Mudkechula Gaunpalika, DOLPA",82.51085973074221,29.05050909877456
634,Shey Phoksundo Gaunpalika,DOLPA,6,"Shey Phoksundo Gaunpalika, DOLPA",82.96527101253494,29.382115203982085
635,Thuli Bheri Nagarpalika,DOLPA,6,"Thuli Bheri Nagarpalika, DOLPA",82.86690690083987,28.93203612527366
636,Tripurasundari Nagarpalika,DOLPA,6,"Tripurasundari Nagarpalika, DOLPA",82.7497981132466,29.02239275290254
637,Chandannath Nagarpalika,JUMLA,6,"Chandannath Nagarpalika, JUMLA",82.15224639308246,29.29511454527672
638,Guthichaur Gaunpalika,JUMLA,6,"Guthichaur Gaunpalika, JUMLA",82.36710242088503,29.19715725564593
639,Hima Gaunpalika,JUMLA,6,"Hima Gaunpalika, JUMLA",81.93307318705023,29.274222836631704
640,Kanakasundari Gaunpalika,JUMLA,6,"Kanakasundari Gaunpalika, JUMLA",82.05879934041454,29.418490599271493
641,Patrasi Gaunpalika,JUMLA,6,"Patrasi Gaunpalika, JUMLA",82.38518215583011,29.35900601887215
642,Sinja Gaunpalika,JUMLA,6,"Sinja Gaunpalika, JUMLA",82.02764108511948,29.343294566441347
643,Tatopani Gaunpalika,JUMLA,6,"Tatopani Gaunpalika, JUMLA",82.12025733537357,29.136023172447583
644,Tila Gaunpalika,JUMLA,6,"Tila Gaunpalika, JUMLA",81.98463873128046,29.18660209478292
645,Kalika Gaunpalika,KALIKOT,6,"Kalika Gaunpalika, KALIKOT",81.62839926778695,29.079835806245
646,Khandachakra Nagarpalika,KALIKOT,6,"Khandachakra Nagarpalika, KALIKOT",81.67407033779173,29.150267951228226
647,Mahawai Gaunpalika,KALIKOT,6,"Mahawai Gaunpalika, KALIKOT",81.85416828976187,29.04472062879425
648,Naraharinath Gaunpalika,KALIKOT,6,"Naraharinath Gaunpalika, KALIKOT",81.5322520980503,29.21532953803177
649,Pachaljharana Gaunpalika,KALIKOT,6,"Pachaljharana Gaunpalika, KALIKOT",81.71988461451656,29.249848517851113
650,Palata Gaunpalika,KALIKOT,6,"Palata Gaunpalika, KALIKOT",81.83970369228365,29.350272492906957
651,Raskot Nagarpalika,KALIKOT,6,"Raskot Nagarpalika, KALIKOT",81.64421544862293,29.27278375352855
652,Sanni Tribeni Gaunpalika,KALIKOT,6,"Sanni Tribeni Gaunpalika, KALIKOT",81.58951436449077,29.284455526073433
653,Tilagufa Nagarpalika,KALIKOT,6,"Tilagufa Nagarpalika, KALIKOT",81.85572231024967,29.145936853552666
654,Chhayanath Rara Nagarpalika,MUGU,6,"Chhayanath Rara Nagarpalika, MUGU",82.16815043497927,29.532968771394614
655,Khatyad Gaunpalika,MUGU,6,"Khatyad Gaunpalika, MUGU",81.89315345536879,29.514241734268698
656,Mugu mkarmarong Gaunpalika,MUGU,6,"Mugu mkarmarong Gaunpalika, MUGU",82.54742032450896,29.649513961816673
657,Soru Gaunpalika,MUGU,6,"Soru Gaunpalika, MUGU",81.98372368142644,29.62832089811801
658,Adanchuli Gaunpalika,HUMLA,6,"Adanchuli Gaunpalika, HUMLA",81.8464236751471,29.705387564257673
659,Chankheli Gaunpalika,HUMLA,6,"Chankheli Gaunpalika, HUMLA",82.2513248676276,29.84819912471372
660,Kharpunath Gaunpalika,HUMLA,6,"Kharpunath Gaunpalika, HUMLA",82.0415053750743,30.023288879892437
661,Namkha Gaunpalika,HUMLA,6,"Namkha Gaunpalika, HUMLA",81.61043561976055,30.176679423483506
662,Sarkegad Gaunpalika,HUMLA,6,"Sarkegad Gaunpalika, HUMLA",81.93085095128906,29.792461410198772
663,Simkot Gaunpalika,HUMLA,6,"Simkot Gaunpalika, HUMLA",81.9220261782753,30.129895507848847
664,Tanjakot Gaunpalika,HUMLA,6,"Tanjakot Gaunpalika, HUMLA",81.75771970163039,29.684720442015617
665,Badimalika Nagarpalika,BAJURA,7,"Badimalika Nagarpalika, BAJURA",81.4957870382884,29.432655046392895
666,Budhiganga Nagarpalika,BAJURA,7,"Budhiganga Nagarpalika, BAJURA",81.3185395629162,29.36239672540237
667,Budhinanda Nagarpalika,BAJURA,7,"Budhinanda Nagarpalika, BAJURA",81.61743269641295,29.529497974643274
668,Chhededaha Gaunpalika,BAJURA,7,"Chhededaha Gaunpalika, BAJURA",81.29745175553651,29.406985468438123
669,Gaumul Gaunpalika,BAJURA,7,"Gaumul Gaunpalika, BAJURA",81.44939283820736,29.55924189244402
670,Himali Gaunpalika,BAJURA,7,"Himali Gaunpalika, BAJURA",81.65827073379013,29.751703982675558
671,Jagannath Gaunpalika,BAJURA,7,"Jagannath Gaunpalika, BAJURA",81.66066143078638,29.391881680761394
672,Swami Kartik Gaunpalika,BAJURA,7,"Swami Kartik Gaunpalika, BAJURA",81.75609207043678,29.437027474365678
673,Tribeni Nagarpalika,BAJURA,7,"Tribeni Nagarpalika, BAJURA",81.41978160823851,29.329307456932593
674,Khaptad National Park,BAJURA,7,"Khaptad National Park, BAJURA",81.19654115682552,29.391972290782448
675,Bithadchir Gaunpalika,BAJHANG,7,"Bithadchir Gaunpalika, BAJHANG",80.83345344497421,29.516592175709853
676,Bungal Nagarpalika,BAJHANG,7,"Bungal Nagarpalika, BAJHANG",80.92967711110195,29.66022245776414
677,Chabispathivera Gaunpalika,BAJHANG,7,"Chabispathivera Gaunpalika, BAJHANG",81.05704456826699,29.559358034900118
678,Durgathali Gaunpalika,BAJHANG,7,"Durgathali Gaunpalika, BAJHANG",81.00439472996587,29.528299999199753
679,JayaPrithivi Nagarpalika,BAJHANG,7,"JayaPrithivi Nagarpalika, BAJHANG",81.19183535623897,29.54021116915823
680,Saa Paal Gaunpalika,BAJHANG,7,"Saa Paal Gaunpalika, BAJHANG",81.29848812052781,29.867530163761085
681,Kedarseu Gaunpalika,BAJHANG,7,"Kedarseu Gaunpalika, BAJHANG",80.93244328627856,29.513318424784195
682,Khaptadchhanna Gaunpalika,BAJHANG,7,"Khaptadchhanna Gaunpalika, BAJHANG",81.19597357912006,29.45487998768732
683,Masta Gaunpalika,BAJHANG,7,"Masta Gaunpalika, BAJHANG",81.28984323094603,29.54526088511747
684,Surma Gaunpalika,BAJHANG,7,"Surma Gaunpalika, BAJHANG",81.12515498820358,29.678363811134524
685,Talkot Gaunpalika,BAJHANG,7,"Talkot Gaunpalika, BAJHANG",81.29455908990248,29.660481380195964
686,Thalara Gaunpalika,BAJHANG,7,"Thalara Gaunpalika, BAJHANG",81.0067801282346,29.449702021092655
687,Khaptad National Park,BAJHANG,7,"Khaptad National Park, BAJHANG",81.11291151157356,29.42407684005536
688,Bannigadhi Jayagadh Gaunpalika,ACHHAM,7,"Bannigadhi Jayagadh Gaunpalika, ACHHAM",81.29846017422962,29.189235507148258
689,Chaurpati Gaunpalika,ACHHAM,7,"Chaurpati Gaunpalika, ACHHAM",81.12736782496403,29.181881557641844
690,Dhakari Gaunpalika,ACHHAM,7,"Dhakari Gaunpalika, ACHHAM",81.22811321425806,28.975813494735917
691,Kamalbazar Nagarpalika,ACHHAM,7,"Kamalbazar Nagarpalika, ACHHAM",81.33821150116007,29.059941415443987
692,Mangalsen Nagarpalika,ACHHAM,7,"Mangalsen Nagarpalika, ACHHAM",81.22509017214942,29.101692002624507
693,Mellekh Gaunpalika,ACHHAM,7,"Mellekh Gaunpalika, ACHHAM",81.31928884093512,29.26257905531555
694,Panchadewal Binayak Nagarpalika,ACHHAM,7,"Panchadewal Binayak Nagarpalika, ACHHAM",81.4523207840677,29.10820866661847
695,Ramaroshan Gaunpalika,ACHHAM,7,"Ramaroshan Gaunpalika, ACHHAM",81.41978810096406,29.203666467302334
696,Sanphebagar Nagarpalika,ACHHAM,7,"Sanphebagar Nagarpalika, ACHHAM",81.20587670458026,29.26850710771364
697,Turmakhad Gaunpalika,ACHHAM,7,"Turmakhad Gaunpalika, ACHHAM",81.42857988632066,28.906759128231243
698,Khaptad National Park,ACHHAM,7,"Khaptad National Park, ACHHAM",81.16876962277752,29.344033943492338
699,Adharsha Gaunpalika,DOTI,7,"Adharsha Gaunpalika, DOTI",80.87525062894993,29.34427778431448
700,Badikedar Gaunpalika,DOTI,7,"Badikedar Gaunpalika, DOTI",80.88069804433978,29.021621874973835
701,Bogtan Gaunpalika,DOTI,7,"Bogtan Gaunpalika, DOTI",81.0383051470407,29.05479122392595
702,Dipayal Silgadi Nagarpalika,DOTI,7,"Dipayal Silgadi Nagarpalika, DOTI",80.96827943613505,29.263652003460994
703,Jorayal Gaunpalika,DOTI,7,"Jorayal Gaunpalika, DOTI",80.69907928249216,29.107878335775663
704,K I Sin Gaunpalika,DOTI,7,"K I Sin Gaunpalika, DOTI",80.96354802950685,29.171030053961545
705,Purbichauki Gaunpalika,DOTI,7,"Purbichauki Gaunpalika, DOTI",81.06440880649231,29.274847980894368
706,Sayal Gaunpalika,DOTI,7,"Sayal Gaunpalika, DOTI",80.97287429645604,29.37385712086716
707,Shikhar Nagarpalika,DOTI,7,"Shikhar Nagarpalika, DOTI",80.81920394204155,29.235258490930004
708,Khaptad National Park,DOTI,7,"Khaptad National Park, DOTI",81.10080498078568,29.365850397862463
709,Bardagoriya Gaunpalika,KAILALI,7,"Bardagoriya Gaunpalika, KAILALI",81.04096969935348,28.680341531790933
710,Bhajani Nagarpalika,KAILALI,7,"Bhajani Nagarpalika, KAILALI",80.96392506200651,28.517425217230297
711,Chure Gaunpalika,KAILALI,7,"Chure Gaunpalika, KAILALI",80.7023634257176,28.931655415801018
712,Dhangadhi Upamahanagarpalika,KAILALI,7,"Dhangadhi Upamahanagarpalika, KAILALI",80.65474429506432,28.69314981227464
713,Gauriganga Nagarpalika,KAILALI,7,"Gauriganga Nagarpalika, KAILALI",80.7814988245578,28.753059800738587
714,Ghodaghodi Nagarpalika,KAILALI,7,"Ghodaghodi Nagarpalika, KAILALI",80.94001677536659,28.705532441015766
715,Godawari Nagarpalika,KAILALI,7,"Godawari Nagarpalika, KAILALI",80.57616401944463,28.869818074859754
716,Janaki Gaunpalika,KAILALI,7,"Janaki Gaunpalika, KAILALI",81.14224739018702,28.569511163983755
717,Joshipur Gaunpalika,KAILALI,7,"Joshipur Gaunpalika, KAILALI",81.02512492103482,28.57506905468096
718,Kailari Gaunpalika,KAILALI,7,"Kailari Gaunpalika, KAILALI",80.80977380741237,28.595770081949734
719,Lamkichuha Nagarpalika,KAILALI,7,"Lamkichuha Nagarpalika, KAILALI",81.15441751064179,28.6512875841404
720,Mohanyal Gaunpalika,KAILALI,7,"Mohanyal Gaunpalika, KAILALI",81.04924572025922,28.817088735460956
721,Tikapur Nagarpalika,KAILALI,7,"Tikapur Nagarpalika, KAILALI",81.08659888298693,28.48519095877834
722,Bedkot Nagarpalika,KANCHANPUR,7,"Bedkot Nagarpalika, KANCHANPUR",80.27064037663821,28.993687193867352
723,Belauri Nagarpalika,KANCHANPUR,7,"Belauri Nagarpalika, KANCHANPUR",80.35260549870918,28.70035749598662
724,Beldandi Gaunpalika,KANCHANPUR,7,"Beldandi Gaunpalika, KANCHANPUR",80.2634672355106,28.773515853993242
725,Bhimdatta Nagarpalika,KANCHANPUR,7,"Bhimdatta Nagarpalika, KANCHANPUR",80.16800489386189,29.00676658448429
726,Krishnapur Nagarpalika,KANCHANPUR,7,"Krishnapur Nagarpalika, KANCHANPUR",80.46910113433557,28.861210786832444
727,Laljhadi Gaunpalika,KANCHANPUR,7,"Laljhadi Gaunpalika, KANCHANPUR",80.42787142496375,28.76187126673398
728,Mahakali Nagarpalika,KANCHANPUR,7,"Mahakali Nagarpalika, KANCHANPUR",80.0846182911413,28.896102745343626
729,Punarbas Nagarpalika,KANCHANPUR,7,"Punarbas Nagarpalika, KANCHANPUR",80.47703781145022,28.647718802932342
730,Shuklaphanta Nagarpalika,KANCHANPUR,7,"Shuklaphanta Nagarpalika, KANCHANPUR",80.37817844225214,28.928749217581842
731,Shuklaphanta National Park,KANCHANPUR,7,"Shuklaphanta National Park, KANCHANPUR",80.24078320523608,28.86686782078769
732,Ajaymeru Gaunpalika,DADELDHURA,7,"Ajaymeru Gaunpalika, DADELDHURA",80.51776184712257,29.361323096920582
733,Alital Gaunpalika,DADELDHURA,7,"Alital Gaunpalika, DADELDHURA",80.51081172156385,29.135217630875466
734,Amargadhi Nagarpalika,DADELDHURA,7,"Amargadhi Nagarpalika, DADELDHURA",80.58311333453696,29.28264863680736
735,Bhageshwar Gaunpalika,DADELDHURA,7,"Bhageshwar Gaunpalika, DADELDHURA",80.40491911354252,29.2812101080891
736,Ganayapdhura Gaunpalika,DADELDHURA,7,"Ganayapdhura Gaunpalika, DADELDHURA",80.67739800366915,29.245920611365587
737,Nawadurga Gaunpalika,DADELDHURA,7,"Nawadurga Gaunpalika, DADELDHURA",80.70032404134004,29.358143788777056
738,Parashuram Nagarpalika,DADELDHURA,7,"Parashuram Nagarpalika, DADELDHURA",80.34474709353304,29.12875618513702
739,Dasharathchanda Nagarpalika,BAITADI,7,"Dasharathchanda Nagarpalika, BAITADI",80.43063209577167,29.53481811101007
740,Dilasaini Gaunpalika,BAITADI,7,"Dilasaini Gaunpalika, BAITADI",80.64773398448773,29.66526341424769
741,Dogadakedar Gaunpalika,BAITADI,7,"Dogadakedar Gaunpalika, BAITADI",80.52834607440971,29.596928884461636
742,Melauli Nagarpalika,BAITADI,7,"Melauli Nagarpalika, BAITADI",80.41998037635923,29.429231634251533
743,Pancheshwar Gaunpalika,BAITADI,7,"Pancheshwar Gaunpalika, BAITADI",80.31898377236975,29.447452019191054
744,Patan Nagarpalika,BAITADI,7,"Patan Nagarpalika, BAITADI",80.57832986122119,29.445220951475726
745,Purchaudi Nagarpalika,BAITADI,7,"Purchaudi Nagarpalika, BAITADI",80.69975760985916,29.599458802014816
746,Shivanath Gaunpalika,BAITADI,7,"Shivanath Gaunpalika, BAITADI",80.33537956375041,29.371096072631815
747,Sigas Gaunpalika,BAITADI,7,"Sigas Gaunpalika, BAITADI",80.78128022041015,29.450552029584223
748,Surnaya Gaunpalika,BAITADI,7,"Surnaya Gaunpalika, BAITADI",80.60550196857342,29.526032296320846
749,Apihimal Gaunpalika,DARCHULA,7,"Apihimal Gaunpalika, DARCHULA",80.90550517452449,29.86061382194596
750,Byas Gaunpalika,DARCHULA,7,"Byas Gaunpalika, DARCHULA",80.89020737228816,30.055699405870225
751,Dunhu Gaunpalika,DARCHULA,7,"Dunhu Gaunpalika, DARCHULA",80.61580007059752,29.88568988516597
752,Lekam Gaunpalika,DARCHULA,7,"Lekam Gaunpalika, DARCHULA",80.45701560455099,29.659712278429716
753,Mahakali Nagarpalika,DARCHULA,7,"Mahakali Nagarpalika, DARCHULA",80.54124417956058,29.804356762887107
754,Malikaarjun Gaunpalika,DARCHULA,7,"Malikaarjun Gaunpalika, DARCHULA",80.4350683296001,29.73337798523209
755,Marma Gaunpalika,DARCHULA,7,"Marma Gaunpalika, DARCHULA",80.81988256650952,29.73936475444793
756,Naugad Gaunpalika,DARCHULA,7,"Naugad Gaunpalika, DARCHULA",80.66511219705258,29.794071281278892
757,Shailyashikhar Nagarpalika,DARCHULA,7,"Shailyashikhar Nagarpalika, DARCHULA",80.56971923207523,29.709222715401765
758,Binayee Tribeni Gaunpalika,NAWALPARASI_E,4,"Binayee Tribeni Gaunpalika, NAWALPARASI_E",83.84248518530137,27.636629948070258
759,Bulingtar Gaunpalika,NAWALPARASI_E,4,"Bulingtar Gaunpalika, NAWALPARASI_E",84.19504305818462,27.80859621737541
760,Bungdikali Gaunpalika,NAWALPARASI_E,4,"Bungdikali Gaunpalika, NAWALPARASI_E",84.06367526471205,27.812295452571774
761,Devchuli Nagarpalika,NAWALPARASI_E,4,"Devchuli Nagarpalika, NAWALPARASI_E",84.20559282057046,27.715609778248538
762,Gaidakot Nagarpalika,NAWALPARASI_E,4,"Gaidakot Nagarpalika, NAWALPARASI_E",84.32936214849866,27.729839010624698
763,Hupsekot Gaunpalika,NAWALPARASI_E,4,"Hupsekot Gaunpalika, NAWALPARASI_E",84.05424554949046,27.717170668559202
764,Kawasoti Nagarpalika,NAWALPARASI_E,4,"Kawasoti Nagarpalika, NAWALPARASI_E",84.12166984332268,27.641770934212257
765,Madhyabindu Nagarpalika,NAWALPARASI_E,4,"Madhyabindu Nagarpalika, NAWALPARASI_E",83.98023003442567,27.628160962851407
766,Chitawan National Park,NAWALPARASI_E,4,"Chitawan National Park, NAWALPARASI_E",84.04871016589748,27.564267488535155
767,Bhume Gaunpalika,RUKUM_E,5,"Bhume Gaunpalika, RUKUM_E",82.7000655122072,28.546291910094105
768,Putha Uttarganga Gaunpalika,RUKUM_E,5,"Putha Uttarganga Gaunpalika, RUKUM_E",82.82145885541915,28.645546971559906
769,Sisne Gaunpalika,RUKUM_E,5,"Sisne Gaunpalika, RUKUM_E",82.6379760630787,28.730358241937573
770,Dhorpatan Hunting Reserve,RUKUM_E,5,"Dhorpatan Hunting Reserve, RUKUM_E",82.96612094477017,28.73609907851341
771,Parsa Wildlife Reserve,PARSA,2,"Parsa Wildlife Reserve, PARSA",84.82550731123692,27.324362341068593
772,Chitawan National Park,PARSA,2,"Chitawan National Park, PARSA",84.63186276942918,27.40415576603244
773,Rolpa Nagarpalika,ROLPA,5,"Rolpa Nagarpalika, ROLPA",82.62619035910916,28.337235766253027
774,Musikot Nagarpalika,RUKUM_W,6,"Musikot Nagarpalika, RUKUM_W",82.47860816308673,28.61127103580741
